ConditionCode,Condition,Address,StoreName,Classify,Lat,Long
1,영업/정상,서울특별시 중구 장충단로13길 34 (을지로6가),동화상가,그 밖의 대규모점포,200543.754911579,451888.040346722
3,폐업,서울특별시 양천구 목동동로 190(신정동 길훈로즈빌),홈플러스 익스프레스 신정4점,구분없음,188554.940218695,446701.745114511
1,영업/정상,서울특별시 강동구 성안로 176 (길동),롯데쇼핑㈜롯데슈퍼길동점,구분없음,211983.181564983,448483.889140704
1,영업/정상,서울특별시 노원구 한글비석로 396 (상계동),상계역전종합상가,쇼핑센터,206280.789903642,462002.498987713
1,영업/정상,서울특별시 구로구 구로중앙로 152 (구로동),이랜드리테일 NC구로점,백화점,189570.360930049,444336.051330144
1,영업/정상,,롯데백화점 영등포점,백화점,191741.345847708,445970.307641467
1,영업/정상,서울특별시 강북구 삼양로 247 (미아동),롯데쇼핑(주) 롯데마트 삼양점,복합쇼핑몰,201494.627293774,458136.342274236
1,영업/정상,서울특별시 용산구 청파로 109 나진상가 14동 (한강로3가),나진전자월드상가,전문점,196697.031086973,447931.108267379
1,영업/정상,서울특별시 용산구 청파로 109 나진상가 (한강로3가),나진산업 주식회사,전문점,196697.031086973,447931.108267379
1,영업/정상,서울특별시 종로구 통일로 246-10 무악현대아파트 지하 1층 (무악동),GS THE FRESH 무악현대점,대형마트,196467.975088253,452566.134030104
1,영업/정상,서울특별시 성동구 성수이로 32-15 (성수동2가),뚝도시장,시장,204775.366000022,448395.587760252
1,영업/정상,,청량리역 한양수자인 그라시엘 판매시설,그 밖의 대규모점포,203728.132135578,452778.89330743
1,영업/정상,서울특별시 동대문구 고산자로36길 3 경동시장 (제기동),경동시장,시장,203403.019535366,452985.725419514
1,영업/정상,서울특별시 동작구 노들로2길 7 노량진 드림스퀘어 복합빌딩 (노량진동),노량진 드림스퀘어,그 밖의 대규모점포,194571.152376388,445790.549860682
1,영업/정상,서울특별시 용산구 이촌로 200 LG프라자 지하1층 (이촌동),GS THE FRESH 용산이촌점,구분없음,197221.439324261,446524.508385914
1,영업/정상,서울특별시 서대문구 수색로2길 39(남가좌동 DMC금호리첸시아),이마트에브리데이 남가좌점,구분없음,192482.416512858,452143.491541077
1,영업/정상,서울특별시 광진구 자양로 168 102호 (구의동 광진 더프레236),GS THE FRESH 광진구의점,구분없음,207400.608063491,448930.683211743
1,영업/정상,서울특별시 강남구 압구정로 312 신사동동 1층 (신사동),GS THE FRESH 압구정점,구분없음,203069.441212025,447391.130408384
1,영업/정상,서울특별시 서대문구 거북골로 34 명지대학교 (남가좌동),이마트에브리데이 명지대점,구분없음,193139.52394401,453106.002592232
1,영업/정상,서울특별시 서초구 신반포로 176 (반포동),신세계백화점 강남점,백화점,200250.447804795,444683.220506107
1,영업/정상,서울특별시 노원구 공릉로 144 (공릉동 공릉빌딩),롯데쇼핑(주) 롯데슈퍼공릉점,구분없음,206952.444113646,457814.529614419
1,영업/정상,서울특별시 노원구 동일로204가길 46 (중계동),이천일아울렛 중계점,그 밖의 대규모점포,205931.05327036,459884.197207567
1,영업/정상,서울특별시 노원구 동일로 1414 (상계동),롯데백화점 노원점,백화점,205320.28476675,461419.881795004
1,영업/정상,서울특별시 중구 을지로45길 62 (신당동),누죤,그 밖의 대규모점포,201092.281213446,451637.932708365
1,영업/정상,서울특별시 성북구 숭인로8길 80 롯데캐슬클라시아 상가 101~104호 (길음동),GS THE FRESH 성북클라시아점,구분없음,202328.542538257,456302.296413002
3,폐업,서울특별시 광진구 자양로 168 (구의동),홈플러스(주)익스프레스 구의점,구분없음,207400.608063491,448930.683211743
1,영업/정상,서울특별시 광진구 긴고랑로11길 11 (중곡동),(주)이마트에브리데이 중곡동점,구분없음,207114.498872176,451296.049443757
3,폐업,서울특별시 광진구 긴고랑로 60 (중곡동),롯데쇼핑(주)롯데슈퍼 중곡점,구분없음,207235.581247334,451072.124043842
3,폐업,서울특별시 은평구 연서로17길 18-6 (갈현동),역촌중앙시장,그 밖의 대규모점포,192534.656897366,456773.714884876
1,영업/정상,서울특별시 관악구 청림6길 3 관악푸르지오 상가동 110113114호 (봉천동),지에스 더 프레시(GS THE FRESH) 관악청림점,구분없음,196384.544308046,442822.980265735
1,영업/정상,서울특별시 광진구 자양로 293 (구의동),롯데쇼핑(주)롯데슈퍼 아차산점,구분없음,208075.543534642,449971.642025946
3,폐업,서울특별시 광진구 아차산로 450 (구의동),롯데쇼핑(주)롯데슈퍼 구의점,구분없음,208087.647208835,448484.131343078
1,영업/정상,서울특별시 서대문구 가좌로 99(홍은동),롯데프레시 홍은점,구분없음,193440.549915639,453256.425998955
1,영업/정상,서울특별시 양천구 목동동로 196(신정동),홈플러스 익스프레스 오목교점,구분없음,188565.074701959,446750.881633578
1,영업/정상,서울특별시 동대문구 고산자로36길 3 2층 (제기동),노브랜드 경동시장점,구분없음,203403.019535366,452985.725419514
3,폐업,서울특별시 서초구 방배로37길 11 1층 (방배동 삼호회관),(주)지에스리테일 서초방배점,대형마트,198970.448010517,443479.894856733
1,영업/정상,서울특별시 동대문구  이문로  37 (회기동),베라체캠퍼스 에비뉴,그 밖의 대규모점포,204881.313219146,454280.040555974
1,영업/정상,서울특별시 양천구 월정로46길 11 (신월동외 1필지),롯데쇼핑(주)롯데슈퍼 신월점,구분없음,185164.559946017,448756.033565786
3,폐업,서울특별시 성동구 한림말길 56 (옥수동),GS수퍼 성동옥수점,구분없음,201462.251313062,448744.038108098
1,영업/정상,서울특별시 도봉구 도봉로110길 65 (창동),롯데슈퍼 창동점,구분없음,203207.625254256,460455.837628654
1,영업/정상,서울특별시 도봉구 도당로 10 (쌍문동),롯데슈퍼 쌍문점,구분없음,203048.669322526,461867.647869631
1,영업/정상,서울특별시 도봉구 방학로 223 (방학동),롯데슈퍼 방학점,구분없음,202326.175760253,462116.40856417
3,폐업,,(주)지에스리테일 GS수퍼 목동오거리점,구분없음,187670.416423662,447030.560396528
1,영업/정상,서울특별시 성북구 보국문로11길 18-19 정릉시장 고객편의시설 (정릉동),정릉시장상인회,시장,200729.859590291,456347.644834894
3,폐업,서울특별시 성동구 마장로35길 68 (마장동),토우마트마축일시장,그 밖의 대규모점포,203576.594691866,452041.559037331
1,영업/정상,서울특별시 뚝섬로 379,(주)이마트 성수점,대형마트,204614.272744322,448607.441251647
1,영업/정상,서울특별시 강남구 압구정로2길 46 1층 (신사동 ---------),이마트에브리데이 강남시장점,구분없음,201757.494098748,446282.45446652
1,영업/정상,서울특별시 영등포구 신길로 162 1층 일부 (신길동),GS THE FRESH 신길사러가점,구분없음,192108.925858666,444944.153786024
1,영업/정상,서울특별시 서대문구 신촌로 13 아륭빌딩 (창천동),롯데슈퍼 창천점,구분없음,193624.014939084,450696.745009002
﻿3,폐업,서울특별시 서대문구 통일로 413 연세24시사우나 (홍제동),롯데슈퍼 홍제점,구분없음,195196.693652181,453764.706268517
1,영업/정상,서울특별시 서대문구 거북골로 120(남가좌동 DMC센트레빌),롯데슈퍼 남가좌점,구분없음,192480.02944094,452634.55767379
1,영업/정상,서울특별시 은평구 불광로 20 (대조동),엔씨백화점 불광점,쇼핑센터,193661.732383169,456379.193899276
1,영업/정상,서울특별시 영등포구 양평로 47 (당산동5가),이랜드리테일 당산점,그 밖의 대규모점포,191177.584475692,447965.645513185
1,영업/정상,서울특별시 중구 마장로1길 21 (신당동),(주)광희패션몰,그 밖의 대규모점포,200982.709076616,451817.384038629
1,영업/정상,서울특별시 중구 남대문시장8길 7 (남창동),삼익패션타운,그 밖의 대규모점포,198091.202136386,450913.340731519
1,영업/정상,서울특별시 중구 을지로36길 35 (오장동),중부시장,그 밖의 대규모점포,200091.167605242,451433.579647276
1,영업/정상,서울특별시 중구 을지로45길 72 (신당동),디자이너크럽,그 밖의 대규모점포,201075.606676645,451683.017810123
1,영업/정상,서울특별시 중구 명동8가길 27 (충무로2가),선싸인,그 밖의 대규모점포,198737.553769773,451081.894647871
3,폐업,,월곡시장,시장,,
3,폐업,,정릉시장,시장,200741.814526594,456247.253686235
1,영업/정상,서울특별시 중구 마장로1길 18 (신당동),혜양엘리시움,그 밖의 대규모점포,201047.899695285,451814.35044652
1,영업/정상,서울특별시 중구 소월로 9 (남창동),남정종합상가,그 밖의 대규모점포,197843.820719318,450717.353642797
3,폐업,,장위시장,그 밖의 대규모점포,204411.779055457,456753.488817165
3,폐업,,삼선시장,시장,200571.15381745,454098.610861527
3,폐업,,코코마트,시장,204367.347787613,456732.945005445
1,영업/정상,서울특별시 종로구 삼일대로 428 낙원상가 506호 (낙원동),낙원상가,그 밖의 대규모점포,198838.912965902,452214.210961577
1,영업/정상,서울특별시 종로구 삼일대로 428 낙원상가 (낙원동),낙원상가,그 밖의 대규모점포,198838.912965902,452214.210961577
1,영업/정상,서울특별시 종로구 창경궁로 88 (예지동),광장시장,복합쇼핑몰,199837.41426735,451974.128468485
1,영업/정상,서울특별시 종로구 종로 347 (숭인동),홈플러스(주)익스프레스 숭인점,구분없음,201359.53353905,452395.659064842
1,영업/정상,서울특별시 종로구 종로 266 동대문종합시장D동상가  동 (종로6가),동대문종합시장D동상가,그 밖의 대규모점포,200579.409754868,452035.347658612
1,영업/정상,서울특별시 중구 을지로 276 (을지로7가 apMPLACE),에이피엠플레이스,쇼핑센터,200673.011457453,451443.279894262
1,영업/정상,,대림시장,시장,192661.661318718,453828.585982771
1,영업/정상,,양지시장,그 밖의 대규모점포,,
1,영업/정상,서울특별시 종로구 청계천로 41 (서린동),(주)영풍문고,전문점,198351.818737482,451921.60302604
1,영업/정상,서울특별시 중구 마장로 22 (신당동 DDP FASHION MALL),DDP FASHION MALL,그 밖의 대규모점포,200999.356221857,451654.418167327
1,영업/정상,,종로세운상가,대형마트,,
1,영업/정상,서울특별시 종로구 종로 183 (인의동 효성주얼리시티),효성주얼리시티,그 밖의 대규모점포,199812.609633255,452132.648343993
1,영업/정상,서울특별시 중구 다산로 222 (신당동),홈플러스익스프레스 신당점,구분없음,201308.536482314,451174.365486466
1,영업/정상,서울특별시 종로구 지봉로 81 (창신동 브라운스톤 창신),브라운스톤 창신상가,그 밖의 대규모점포,201258.062657124,452787.132831042
1,영업/정상,서울특별시 종로구 종로 266 (종로6가),동대문종합시장,그 밖의 대규모점포,200717.7490316,452011.865092338
1,영업/정상,서울특별시 종로구 종로 272 (종로6가),동대문종합시장 신관,그 밖의 대규모점포,200647.01325068,452054.764927519
1,영업/정상,서울특별시 종로구 종로44길 14 (창신동),동문시장,시장,200908.398396105,452025.346454838
1,영업/정상,서울특별시 종로구 창경궁로 109 (인의동),세운스퀘어,그 밖의 대규모점포,199670.979884558,452221.775006084
1,영업/정상,서울특별시  새문안로 91 1층 (고려빌딩),홈플러스(주)익스프레스 광화문점,대형마트,197700.034013631,452022.503467072
1,영업/정상,,광장주식회사,시장,199837.41426735,451974.128468485
1,영업/정상,서울특별시 중구 만리재로 175 401동 91011호 (만리동2가),지에스수퍼마켓 중구만리점,구분없음,,
1,영업/정상,,센터포인트 명동,쇼핑센터,198401.701305913,451374.312212737
1,영업/정상,서울특별시 중구 퇴계로85길 22 (황학동),서울중앙시장,그 밖의 대규모점포,201680.067548359,451610.962163829
1,영업/정상,,길음시장,그 밖의 대규모점포,,
1,영업/정상,서울특별시 종로구 종로 1 (종로1가),종로1번지아케이트,복합쇼핑몰,197993.904628438,452032.958591394
1,영업/정상,,영풍문고,대형마트,198351.818737482,451921.60302604
1,영업/정상,,동대문신발도매상가,그 밖의 대규모점포,,
1,영업/정상,서울특별시 종로구 난계로27길 51 신설종합시장 숭인동 (숭인동),신설종합시장,시장,201727.670840565,452264.420237876
1,영업/정상,서울특별시 종로구 난계로27길 51 신설종합시장 (숭인동),신설종합시장(주),그 밖의 대규모점포,201727.670840565,452264.420237876
2,휴업,,종로세운상가,그 밖의 대규모점포,,
2,휴업,,종로세운상가,그 밖의 대규모점포,,
2,휴업,,숭인제일아케이트,그 밖의 대규모점포,,
2,휴업,,광장시장주식회사,그 밖의 대규모점포,,
3,폐업,,크레타 망고 아울렛,전문점,201273.887781838,452163.292543039
﻿3,폐업,,중학아케이드,그 밖의 대규모점포,,
1,영업/정상,서울특별시 중구 남대문시장4길 21 (남창동),서울남대문시장,그 밖의 대규모점포,197951.150595295,450771.087810153
1,영업/정상,서울특별시 중구 마장로 30 (신당동),팀204,그 밖의 대규모점포,201096.681322159,451715.830447841
1,영업/정상,서울특별시 중구 청계천로 260-9 (을지로6가 통일의류종합상가),통일상가,그 밖의 대규모점포,200541.637728834,451814.45954577
1,영업/정상,서울특별시 중구 퇴계로 217 (충무로4가),진양상가,그 밖의 대규모점포,199571.599470393,451124.851387624
1,영업/정상,서울특별시 중구 삼일대로 363 (장교동),상제리제상가,그 밖의 대규모점포,198744.433228989,451677.065126229
1,영업/정상,서울특별시 중구 마장로 19 (신당동),(주)에리어식스,그 밖의 대규모점포,200989.686611204,451762.261508835
1,영업/정상,서울특별시 중구 다산로 274 (흥인동),우일타운,전문점,201390.623455546,451682.924382048
1,영업/정상,서울특별시 중구 을지로 157 (을지로4가),대림상가,그 밖의 대규모점포,199534.329650967,451608.222852119
1,영업/정상,서울특별시 중구 동호로37길 20 (방산동),방산종합시장,그 밖의 대규모점포,200002.952736046,451823.532462914
2,휴업,,진관시장,그 밖의 대규모점포,,
1,영업/정상,서울특별시 중구 마장로1길 28 (신당동),아트프라자,그 밖의 대규모점포,201070.979414952,451874.637536958
1,영업/정상,서울특별시 중구 다산로 32 (신당동),남산타운5상가,그 밖의 대규모점포,200984.713668049,449703.239755874
1,영업/정상,서울특별시 중구 다산로 32 (신당동),남산타운2상가,그 밖의 대규모점포,200984.713668049,449703.239755874
1,영업/정상,서울특별시 중구 장충단로 13-20 (을지로6가),현대시티타워,쇼핑센터,,
1,영업/정상,서울특별시 중구 퇴계로 123 (충무로2가),하이해리엇,그 밖의 대규모점포,198636.2503948,451005.721641592
1,영업/정상,서울특별시 중구 마장로1길 22 (신당동),올레오,쇼핑센터,201040.352596045,451852.142613352
1,영업/정상,서울특별시 중구 마장로 3 (신당동),맥스타일,구분없음,200863.594130764,451837.481623546
1,영업/정상,서울특별시 중구 장충단로13길 20 (을지로6가),통일상가,그 밖의 대규모점포,200613.510297669,451817.515366883
1,영업/정상,서울특별시 중구 마장로 13 (신당동),제일평화시장,그 밖의 대규모점포,200938.52813687,451798.00308625
1,영업/정상,서울특별시 중구 한강대로 405 (봉래동2가),롯데아울렛 서울역점,쇼핑센터,197230.206089772,450446.684395506
1,영업/정상,서울특별시 중구 한강대로 405 (봉래동2가),롯데아울렛 서울역점,쇼핑센터,197364.626754215,450397.369597089
1,영업/정상,서울특별시 중구 다산로 32 (신당동),(주)지에스리테일 남산타운점,그 밖의 대규모점포,200984.713668049,449703.239755874
1,영업/정상,서울특별시 중구 장충단로 263 (을지로6가),밀리오레,그 밖의 대규모점포,200664.582936542,451781.8683954
1,영업/정상,서울특별시 중구 남대문로 30 (남창동),굳앤굳 디자이너월드,그 밖의 대규모점포,198079.694295498,450952.174489406
1,영업/정상,,숭례문상가,그 밖의 대규모점포,197831.002724157,450794.31483169
1,영업/정상,서울특별시 중구 을지로 30 (소공동 롯데호텔),호텔롯데아케이드,그 밖의 대규모점포,198259.65357739,451392.198218657
1,영업/정상,서울특별시 중구 마장로 40 (신당동),에이피엠패션몰,그 밖의 대규모점포,201031.479363871,451759.262402974
1,영업/정상,서울특별시 중구 청계천로 160 세운청계상가 (산림동),청계상가,그 밖의 대규모점포,199521.200809167,451751.424132583
1,영업/정상,서울특별시 중구 장충단로 253 (을지로6가),헬로우에이피엠,그 밖의 대규모점포,200649.776732085,451689.785216541
1,영업/정상,서울특별시 중구 청계천로 334 (신당동),청평화시장,그 밖의 대규모점포,201250.876993355,451908.773811626
1,영업/정상,서울특별시 중구 다산로 293 (신당동),디오트,그 밖의 대규모점포,201236.031514508,451872.409388295
1,영업/정상,서울특별시 중구 청계천로 400-0 (황학동),주식회사 이마트 청계천점,대형마트,201823.908977364,452076.818664092
1,영업/정상,서울특별시 중구 청계천로 400 (황학동),베네치아메가몰,그 밖의 대규모점포,201823.908977364,452076.818664092
1,영업/정상,서울특별시 중구 명동8길 27 (명동2가 엠 플라자),엠플라자(M plaza),쇼핑센터,198619.38819773,451135.740279961
1,영업/정상,서울특별시 중구 장충단로 247 (을지로6가굿모닝시티쇼핑몰),굿모닝시티 쇼핑몰,쇼핑센터,200573.641273539,451621.036467544
1,영업/정상,서울특별시 중구  청계천로  274 (을지로6가),평화시장,그 밖의 대규모점포,200644.673810142,451908.700024524
1,영업/정상,서울특별시 중구 명동길 14 (명동2가),눈스퀘어,그 밖의 대규모점포,198418.741655644,451237.168596152
2,휴업,서울특별시 중구 을지로 264 (을지로6가),롯데패션몰,쇼핑센터,200548.038848161,451497.626572161
2,휴업,서울특별시 중구 을지로 276 (을지로7가),라모도 쇼핑몰,그 밖의 대규모점포,200673.011457453,451443.279894262
3,폐업,서울특별시 중구 서소문로6길 34 (중림동),합동시장,그 밖의 대규모점포,197037.368787577,450812.939747734
3,폐업,서울특별시 중구 마른내로 140 (쌍림동),(주)심풍유통,그 밖의 대규모점포,200247.445072989,451352.512042888
3,폐업,서울특별시 중구 남대문로 84 (남대문로2가),케레스타,그 밖의 대규모점포,198421.647678142,451369.545909652
3,폐업,서울특별시 중구 세종대로9길 58-12 (서소문동),대한통운마트,그 밖의 대규모점포,,
3,폐업,서울특별시 중구 청계천로 400 (황학동),신세계 이마트 청계천점,그 밖의 대규모점포,202011.80009600000,452413.41289400000
3,폐업,서울특별시 중구 명동길 14 (명동2가),아바타,그 밖의 대규모점포,198418.741655644,451237.168596152
3,폐업,서울특별시 중구 칠패로 5 (의주로2가),서소문화훼종합물류센터,그 밖의 대규모점포,197263.068324911,450957.847180654
3,폐업,서울특별시 중구 동호로 249 (장충동2가),호텔신라아케이트,그 밖의 대규모점포,200632.985507216,450610.61087631
3,폐업,서울특별시 중구 남대문시장10길 2 (회현동1가),메사,그 밖의 대규모점포,198129.435542814,450900.239718295
4,취소/말소/만료/정지/중지,서울특별시 중구 퇴계로 115 (충무로1가 밀레오레 명동),밀리오레명동,그 밖의 대규모점포,198562.632745775,450975.116406048
﻿4,취소/말소/만료/정지/중지,서울특별시 중구 을지로 276 (을지로6가),라모도쇼핑몰,그 밖의 대규모점포,200673.011457453,451443.279894262
4,취소/말소/만료/정지/중지,서울특별시 중구 마장로 22 (신당동),패션몰 유어스,그 밖의 대규모점포,200999.356221857,451654.418167327
1,영업/정상,서울특별시 용산구 한강대로23길 55 (한강로3가),아이파크몰(I PARK MALL),쇼핑센터,196762.077394917,447480.039577359
1,영업/정상,서울특별시 용산구 대사관로34길 26 허준빌딩 1층 (한남동),롯데슈퍼 한남점(가맹점),구분없음,200431.145594386,447763.414163072
1,영업/정상,,국제센터아케이드,그 밖의 대규모점포,197646.514005514,447909.070650149
1,영업/정상,서울특별시 용산구 청파로 113-12 (한강로2가),(주)전자타운,그 밖의 대규모점포,196775.639878418,447984.6345458
1,영업/정상,서울특별시 용산구 한강대로 92 (한강로2가),LS Avenue,그 밖의 대규모점포,197099.381481836,447328.548832245
1,영업/정상,서울특별시 용산구 보광로 30 (보광동),보광시장,시장,199955.429742269,447219.161582186
1,영업/정상,서울특별시 용산구 효창원로 270 (서계동),만리시장,시장,196716.165873094,449892.557718372
1,영업/정상,서울특별시 용산구 이태원로 179 (이태원동),해밀톤 쇼핑몰,쇼핑센터,199363.595799729,448050.926289223
1,영업/정상,서울특별시 용산구 청파로 74 (한강로3가),(주)에스와이에스홀딩스,전문점,196370.746398773,447841.698787531
1,영업/정상,,삼익아파트상가,그 밖의 대규모점포,205020.608686581,456783.766604012
1,영업/정상,서울특별시 용산구 청파로 77 (원효로3가),원효전자상가,전문점,196385.232032928,447938.19246116
1,영업/정상,서울특별시 용산구 이촌로 352 (용산동6가),신동아 쇼핑센터,쇼핑센터,198622.89264988,446114.155238838
1,영업/정상,서울특별시 용산구 이촌로 352 (용산동6가),신동아쇼핑센터,쇼핑센터,198622.89264988,446114.155238838
1,영업/정상,서울특별시 용산구 청파로 122 (한강로2가),(주)농협유통하나로클럽용산점,대형마트,196813.258497258,447881.970772064
1,영업/정상,서울특별시 용산구 청파로 113-12 (한강로2가),전자타운,전문점,196775.639878418,447984.6345458
1,영업/정상,서울특별시 용산구 이태원로14길 6 (이태원동),이태원시장,시장,199051.158829761,447953.601666521
1,영업/정상,서울특별시 용산구 청파로 100 12동 2층 (한강로3가),(주)서부티엔디,전문점,196605.511573689,447841.270074498
3,폐업,서울특별시 용산구 한강대로 205 (한강로1가),롯데마켓999 용산파크자이가맹점,구분없음,197514.145785647,448264.322314594
3,폐업,서울특별시 용산구 이촌로 224 (이촌동),한강상가,시장,197450.277644237,446437.197878548
3,폐업,서울특별시 용산구 청파로20길 83 (한강로3가),터미널전자상가,전문점,196610.663839509,447742.348636253
3,폐업,서울특별시 용산구 원효로 51 (산천동),삼성테마트,그 밖의 대규모점포,195547.140326252,447976.775939762
1,영업/정상,서울특별시 성동구 왕십리로 241 (행당동),파크에비뉴 엔터식스 한양대점,복합쇼핑몰,203523,450411
1,영업/정상,,성동용답상가시장,시장,204566.046414287,451260.933119786
1,영업/정상,서울특별시 용산구 한강대로23길 55 (한강로3가),아이파크(I PARK)백화점,백화점,196762.077394917,447480.039577359
1,영업/정상,서울특별시 용산구 새창로 181 (한강로2가 선인상가),선인상가,전문점,196839.641743356,447863.232025192
1,영업/정상,서울특별시 성동구 왕십리로 333 (하왕십리동),홈플러스(주) 익스프레스 왕십리점,구분없음,202806.018487131,451160.356013436
1,영업/정상,서울특별시 성동구 독서당로 303-11 (금호동3가),금남시장,시장,201939.255278432,449589.21383235
1,영업/정상,서울특별시 성동구 자동차시장1길 70 (용답동 장안평중고자동차시장),자동차매매센타,전문점,205784.868811814,450883.524006222
1,영업/정상,서울특별시 성동구 독서당로 160 한남하이츠아파트 (옥수동),한남하이츠상가,그 밖의 대규모점포,201181.598996876,448609.588125745
1,영업/정상,서울특별시 성동구 행당로 87 행당동 대림아파트 (행당동),대림리빙프라자,그 밖의 대규모점포,202326.503044305,450625.58422744
1,영업/정상,서울특별시 성동구 행당로 84 행당 한진타운 종합상가 (행당동),한진종합상가,그 밖의 대규모점포,202511.142930696,450401.303715561
1,영업/정상,서울특별시 성동구 아차산로7길 28 (성수동2가),(주)인트램,그 밖의 대규모점포,204830.977323063,449477.448459906
1,영업/정상,서울특별시 성동구 마장로31길 40 (마장동일대),마장축산물시장,시장,203323.787758273,451940.205444395
1,영업/정상,서울특별시 성동구 무학로6길 50 (도선동),성동삼성쉐르빌상가,그 밖의 대규모점포,203017.021457357,451346.281102634
1,영업/정상,서울특별시 성동구 왕십리광장로 17 (행당동),(주)이마트 왕십리점,대형마트,203292.151898869,451267.730901002
1,영업/정상,서울특별시 성동구 왕십리광장로 17 왕십리민자역사 (행당동),ENTER-6,그 밖의 대규모점포,203321.562330114,451001.868687869
1,영업/정상,서울특별시 성동구 동호로 100 (금호동3가),홈플러스(주) 익프스레스 금호2점,구분없음,201383.023709556,449744.280482389
1,영업/정상,서울특별시 성동구 행당로 6 (금호동1가),홈플러스(주) 익스프레스 금호점,구분없음,201772.807083568,450250.366445197
1,영업/정상,서울특별시 성동구 아차산로 41 (성수동1가),홈플러스(주)익스프레스 뚝섬점,구분없음,204257.584861091,449412.544118545
1,영업/정상,서울특별시 성동구 왕십리로 241 (행당동 서울숲 더샵),노브랜드 엔터식스한양대점,구분없음,203477.905432913,450542.454417279
3,폐업,,녹번시장,그 밖의 대규모점포,193792.984914301,455370.61376951
1,영업/정상,서울특별시 성동구 왕십리로 109 성수만세주유소 (성수동1가),홈플러스익스프레스 뚝섬2점,구분없음,203841.225547969,449475.540141228
3,폐업,서울특별시 성동구 뚝섬로 345 (성수동1가),홈플러스(주)익스프레스 성수점,구분없음,204271.515183693,448744.245842924
3,폐업,서울특별시 성동구 행당로 35 (금호동1가),금북시장,그 밖의 대규모점포,202004.452300224,450411.463616996
3,폐업,서울특별시 성동구 독서당로 302 (금호동4가),금호종합시장,그 밖의 대규모점포,201924.287403479,449505.43323776
3,폐업,,용답동상가번영회,시장,204566.046414287,451260.933119786
4,취소/말소/만료/정지/중지,,성동마트,그 밖의 대규모점포,205260.827743854,448399.948660115
1,영업/정상,서울특별시 광진구 뚝섬로 491 (자양동),노룬산시장,그 밖의 대규모점포,205663.081069121,448250.363358949
﻿1,영업/정상,서울특별시 광진구 아차산로30길 39 (자양동),조양시장,그 밖의 대규모점포,205886.288968009,448517.338628068
1,영업/정상,서울특별시 광진구 긴고랑로11길 11 (중곡동),중곡제일시장,그 밖의 대규모점포,207114.498872176,451296.049443757
1,영업/정상,서울특별시 광진구 광나루로 369 (군자동),파크에비뉴,그 밖의 대규모점포,206212.244268239,449577.174890763
1,영업/정상,서울특별시 광진구 영화사로 12 (중곡동),신성종합시장,그 밖의 대규모점포,207747.893953282,450639.201015458
1,영업/정상,서울특별시 광진구 자양번영로6길 20 (자양동),자양종합시장,그 밖의 대규모점포,206686.364451141,447752.463189936
1,영업/정상,서울특별시 광진구 광나루로56길 85 (구의동),테크노-마트21,그 밖의 대규모점포,208394.416382167,448165.279999905
1,영업/정상,서울특별시 광진구 능동로 314 (중곡동),홈플러스(주)익스프레스 중곡점,구분없음,207001.872308692,450597.61492646
1,영업/정상,서울특별시 광진구 용마산로 10 (중곡동),홈플러스익스프레스 중곡2점,구분없음,207778.116493941,450250.255643789
1,영업/정상,서울특별시 광진구 능동로13길 39 (화양동),(주)지에스리테일GS수퍼 광진화양점,구분없음,206107.775163579,449029.342177779
1,영업/정상,서울특별시 광진구 자양로5길 33 (자양동),프라젠 스파,그 밖의 대규모점포,207368.624495222,447632.296040333
1,영업/정상,서울특별시 광진구 아차산로 272 (자양동),(주)이마트 자양점,대형마트,206349.675048285,448396.939704285
1,영업/정상,서울특별시 광진구 아차산로 200 (자양동),커먼그라운드,그 밖의 대규모점포,205758.816662193,448768.161400623
1,영업/정상,서울특별시 광진구 능동로13길 39 (화양동),한아름시장,그 밖의 대규모점포,206107.775163579,449029.342177779
1,영업/정상,서울특별시 광진구 능동로47길 30 (중곡동),광성시장,그 밖의 대규모점포,207098.994772766,451260.44574067
1,영업/정상,서울특별시 광진구 강변역로 50 (구의동),동서울터미널상가,그 밖의 대규모점포,208201.993320839,447967.299542306
1,영업/정상,서울특별시 광진구 광나루로 635 (광장동),현대종합상가,그 밖의 대규모점포,208644.819209521,448711.725750126
1,영업/정상,서울특별시 광진구 광나루로56길 34 (구의동),구의현대종합상가,그 밖의 대규모점포,208403.746065593,448490.239179557
1,영업/정상,서울특별시 광진구 광나루로56길 63 (구의동),프라임프라자상가,그 밖의 대규모점포,208558.286631653,448353.905156369
1,영업/정상,서울특별시 광진구 광나루로39길 11 (구의동),구의 자이르네 판매시설,그 밖의 대규모점포,207754.575203142,449270.23146706
3,폐업,서울특별시 광진구 광나루로 531-5 (구의동),구의시장,그 밖의 대규모점포,207754.575203142,449270.23146706
3,폐업,,화양시장,그 밖의 대규모점포,,
3,폐업,서울특별시 광진구 아차산로 635 (광장동),워커힐상가,그 밖의 대규모점포,209345.941766315,449811.718207794
1,영업/정상,서울특별시 동대문구 천호대로 133 (용두동),홈플러스(주) 동대문점,대형마트,203356.957362754,452469.300221465
1,영업/정상,서울특별시 광진구 아차산로 473 (구의동),홈플러스익스프레스 구의2점,구분없음,208261.748825555,448701.658478751
1,영업/정상,서울특별시 동대문구 천호대로4길 21 (신설동),서울풍물시장,그 밖의 대규모점포,202186.468072494,452282.607415166
1,영업/정상,서울특별시 동대문구 한천로 42 (장안동),장안위더스빌,그 밖의 대규모점포,205423.969491537,451556.210578255
1,영업/정상,서울특별시 동대문구 이문로 136 (이문동),(주)이마트에브리데이 이문점,구분없음,205396.363734301,455131.683241064
1,영업/정상,서울특별시 동대문구 왕산로 117 (제기동),불로장생타워,전문점,203155.504921512,452914.607542858
1,영업/정상,,건강백화점 동의보감,전문점,203258.377206168,452834.064124525
1,영업/정상,,대규모점포 개설등록,그 밖의 대규모점포,205396.363734301,455131.683241064
1,영업/정상,서울특별시 동대문구 한천로 190(장안동),전곡시장,시장,205987.345607556,452845.284277717
1,영업/정상,서울특별시 동대문구 휘경로 53(휘경동),이경시장,시장,204881.313219146,454280.040555974
1,영업/정상,서울특별시 동대문구 이문로 136 (이문동),이문제일시장,시장,205396.363734301,455131.683241064
1,영업/정상,서울특별시 동대문구 왕산로 109 (제기동),한솔동의보감,전문점,203075.098504907,452918.836458244
1,영업/정상,서울특별시 동대문구 답십리로 288 (장안동),(주)형지쇼핑 아트몰링 장안점,그 밖의 대규모점포,206325.349431713,452184.2101607
1,영업/정상,서울특별시 동대문구 무학로37길 12(용두동),용두시장,시장,202538.011840845,452901.185283908
1,영업/정상,,동서시장,시장,203597.856176904,453055.908738418
1,영업/정상,서울특별시 동대문구 홍릉로 13 (청량리동),청량리현대코아,그 밖의 대규모점포,203851.375424856,453238.594217594
1,영업/정상,서울특별시 동대문구 서울시립대로 36 (전농동),전농프라자,그 밖의 대규모점포,204082.111844228,452472.990548179
1,영업/정상,서울특별시 동대문구 전농로 147 (전농동),전농로타리시장,시장,204970.90163598,452852.821037366
1,영업/정상,서울특별시 동대문구 천호대로 281(답십리동),동부시장,시장,205006.074911385,451814.33240199
1,영업/정상,서울특별시 동대문구 이문로 136 (이문동),이문동웰츠타워,그 밖의 대규모점포,205396.363734301,455131.683241064
1,영업/정상,서울특별시 동대문구 경희대로 20 (회기동),홈플러스 익스프레스 서울회기점,구분없음,204605.383860203,454565.9406212
1,영업/정상,,서울특별시장,그 밖의 대규모점포,202186.468072494,452282.607415166
1,영업/정상,서울특별시 동대문구 고미술로 49 (답십리동),(주)이마트에브리데이 답십리점,구분없음,204638.486386691,451699.765836365
1,영업/정상,서울특별시 동대문구 한천로 42 (장안동),노브랜드 동대문 장안점,대형마트,205423.969491537,451556.210578255
2,휴업,,기타대규모점포,그 밖의 대규모점포,,
3,폐업,,쉐르빌쇼핑타운,그 밖의 대규모점포,206101.9138443,452155.691148899
3,폐업,,(주)미도파마트,대형마트,203075.098504907,452918.836458244
3,폐업,서울특별시 동대문구 왕산로34길 26 (용두동 청량리동부청과시장),동부청과(주),그 밖의 대규모점포,203728.132135578,452778.89330743
﻿3,폐업,,장안시장,그 밖의 대규모점포,,
3,폐업,,휘경시장,시장,204881.313219146,454280.040555974
3,폐업,,이문종합상가,그 밖의 대규모점포,205396.363734301,455131.683241064
3,폐업,,답십리시장,그 밖의 대규모점포,205033.874040234,452322.301296488
3,폐업,,미도파마트,대형마트,203075.098504907,452918.836458244
3,폐업,,휘경시장,그 밖의 대규모점포,204890.735006949,454315.0261032
3,폐업,,주-이문종합상가,그 밖의 대규모점포,205396.363734301,455131.683241064
3,폐업,,주-이문종합상가,그 밖의 대규모점포,205396.363734301,455131.683241064
3,폐업,서울특별시 동대문구 답십리로 288 (장안동),롯데쇼핑(주) 롯데슈퍼 장안2동점,구분없음,206325.349431713,452184.2101607
2,휴업,,그랜드패션아울렛,그 밖의 대규모점포,186786.622461585,450297.70265223
3,폐업,서울특별시 동대문구  답십리로  288 (장안동),롯데쇼핑(주) 롯데슈퍼 장안 2동점,구분없음,206325.349431713,452184.2101607
3,폐업,서울특별시 동대문구 왕산로 205-0 (전농동 롯데백화점(청량리점)),롯데백화점 청량리플라자,백화점,203996.013917877,453058.665828669
3,폐업,서울특별시 동대문구 제기로 18 (제기동),제기시장,그 밖의 대규모점포,203009.188734992,453776.829188234
3,폐업,,답십리중앙시장,그 밖의 대규모점포,205006.074911385,451814.33240199
3,폐업,서울특별시 동대문구 이문로 144 (이문동),홈플러스(주) 익스프레스 이문점,그 밖의 대규모점포,205403.77766039,455220.257356121
4,취소/말소/만료/정지/중지,,건강백화점 동의보감,전문점,203258.377206168,452834.064124525
4,취소/말소/만료/정지/중지,,바우하우스,대형마트,206325.349431713,452184.2101607
1,영업/정상,서울특별시 중랑구 봉화산로 221 (신내동),동성타워프라자,복합쇼핑몰,208520.092335397,456195.877460936
1,영업/정상,서울특별시 중랑구 동일로129길 35 (중화동),태능엔터피아 번영회,시장,206771.217305763,455221.989517331
1,영업/정상,서울특별시 중랑구 면목로74길 45 (면목동),동원,시장,207869.605609192,454173.313439431
1,영업/정상,서울특별시 중랑구 동일로129길 35 (중화동),홈플러스(주) 익스프레스 태릉점,그 밖의 대규모점포,206771.217305763,455221.989517331
1,영업/정상,서울특별시 중랑구 면목로 357 (면목동),홈플러스(주)익스프레스 면목점,그 밖의 대규모점포,207708.364765906,453525.741161528
1,영업/정상,서울특별시 중랑구 용마산로 494 (망우동),홈플러스(주)익스프레스 망우점,그 밖의 대규모점포,208781.999418607,454740.62692431
1,영업/정상,서울특별시 중랑구 면목로39길 11 (면목동),(주)이마트에브리데이 면목동점,구분없음,207553.170404939,453031.11581883
1,영업/정상,서울특별시 중랑구 신내로 201 (신내동),홈플러스 신내점,대형마트,208208.786684767,457054.793655589
1,영업/정상,서울특별시 중랑구 사가정로 332 (면목동),홈플러스(주)면목점,복합쇼핑몰,207089.21659098,453074.476763597
1,영업/정상,서울특별시 중랑구 상봉로 118 (망우동),주식회사 이마트 상봉점,대형마트,208183.558935157,454911.24852306
1,영업/정상,서울특별시 중랑구 동일로 932 (묵동),주식회사 이마트 묵동점,대형마트,206777.731391054,456837.219624564
1,영업/정상,서울특별시 중랑구 망우로 353-0 (상봉동 프레미어스 엠코),이노시티,복합쇼핑몰,208091.26916700000,455421.82657500000
1,영업/정상,서울특별시 망우로 353-0 (상봉동 프레미어스 엠코),홈플러스(주) 서울 상봉점,대형마트,207923.745922676,455090.718335439
1,영업/정상,서울특별시 중랑구 망우로 336 (상봉동),코스트코홀세일 상봉점,대형마트,207897.260402153,454953.363448013
3,폐업,서울특별시 중랑구 면목로 470 (상봉동),한남프라자,시장,207590.031147049,454599.632823069
3,폐업,서울특별시 중랑구 망우로32길 23 (상봉동),롯데쇼핑(주)롯데슈퍼 상봉점,그 밖의 대규모점포,206740.95977172,454517.575326381
4,취소/말소/만료/정지/중지,,신세계 이마트 묵동점,대형마트,206777.731391054,456837.219624564
1,영업/정상,서울특별시 중랑구 신내로 211 금강리빙스텔 비01호 (신내동),롯데프레시앤델리 봉화산역점,구분없음,208112.860200669,457113.638411288
1,영업/정상,서울특별시 성북구 성북로4길 52 (돈암동 한신한진아파트),동소문스카이상가,그 밖의 대규모점포,200841.726990037,454721.505180141
1,영업/정상,,길음시장,그 밖의 대규모점포,,
1,영업/정상,서울특별시 성북구 보문로 61 (보문동7가),홈플러스익스프레스 보문점,구분없음,201826.002331378,453162.376311852
1,영업/정상,서울특별시 성북구 길음로13길 22 (길음동),홈플러스익스프레스 길음점,구분없음,201592.991324089,456382.966061703
1,영업/정상,서울특별시 성북구 돌곶이로22가길 27 (석관동),석관시장,시장,205254.262597746,456319.556671704
1,영업/정상,서울특별시 성북구 인촌로2길 37 (보문동4가),보문시장(주),시장,201858.48834500000,453868.72030800000
1,영업/정상,서울특별시 성북구 한천로73길 26 (석관동),석관황금시장,시장,205365.358044271,456371.165010395
1,영업/정상,서울특별시 성북구 성북로4길 52 (돈암동),동소문스카이상가,시장,200841.726990037,454721.505180141
1,영업/정상,서울특별시 성북구 장월로12길 41-1 (장위동),장위전통시장,시장,204407.250844173,456638.194541249
1,영업/정상,서울특별시 성북구 도봉로 17 (길음동),이마트 미아점,대형마트,202555.30089577,456503.066230481
1,영업/정상,서울특별시 성북구 종암로 167 (하월곡동 동일하이빌뉴시티아파트),이마트 하월곡점,대형마트,202667.468802014,455858.920803881
1,영업/정상,서울특별시 성북구 보문사길 111 (보문동6가 보문파크뷰자이),(주)지에스리테일 성북보문점,구분없음,201509,453158
1,영업/정상,,보문시장,그 밖의 대규모점포,,
1,영업/정상,,미아시장,그 밖의 대규모점포,,
1,영업/정상,,석관시장,그 밖의 대규모점포,,
﻿1,영업/정상,,새석관시장,그 밖의 대규모점포,204582.680269555,456210.836257791
1,영업/정상,,번동시장,그 밖의 대규모점포,204162.777672643,457664.961911112
1,영업/정상,,길음시장,그 밖의 대규모점포,,
1,영업/정상,,동소문스카이프라자,그 밖의 대규모점포,,
1,영업/정상,서울특별시 성북구 동소문로 315 (길음동 현대백화점미아점),현대백화점 미아점,백화점,202466.801104742,456227.571665528
1,영업/정상,서울특별시 성북구 동소문로 227 (길음동),길음시장,시장,201852.588541848,455598.947533777
1,영업/정상,,신세계이마트미아점,대형마트,202555.30089577,456503.066230481
1,영업/정상,서울특별시 성북구  도봉로  17 (길음동),이마트 미아점,대형마트,202555.30089577,456508.495239726
1,영업/정상,서울특별시 성북구 종암로 132 (종암동 종암우림카이저팰리스),종암우림카이저팰리스주상복합,그 밖의 대규모점포,202887.736215434,455516.20316339
1,영업/정상,서울특별시 성북구 도봉로 17 신세계 이마트 미아점 (길음동),이마트 미아점,대형마트,202555.30089577,456503.066230481
1,영업/정상,서울특별시 성북구 화랑로 76 (하월곡동 코업스타클래스),홈플러스 월곡점,대형마트,203502.004139568,455500.568972657
1,영업/정상,서울특별시 성북구 종암로 167  동 (하월곡동),이마트 하월곡점,대형마트,202667.468802014,455858.920803881
1,영업/정상,서울특별시 성북구 성북로4길 52 (돈암동 한진아파트),GS슈퍼마켓 동소문점,구분없음,200841.726990037,454873.825379802
1,영업/정상,서울특별시 성북구 북악산로 844 (돈암동 돈암이수브라운스톤아파트),GS슈퍼마켓 돈암점,그 밖의 대규모점포,201501.474496909,455061.698603977
1,영업/정상,서울특별시 성북구 길음로 33 (길음동 길음뉴타운8단지아파트),GS슈퍼마켓 길음뉴타운점,그 밖의 대규모점포,201514.982796105,456137.084315817
1,영업/정상,서울특별시 성북구 길음로 103 (길음동),GS수퍼마켓 길음점,그 밖의 대규모점포,201517.385329678,456504.561867278
1,영업/정상,,롯데슈퍼하월곡점,,203353.798850162,455765.417145198
1,영업/정상,서울특별시 성북구 동소문로 106 (동선동1가),유타쇼핑몰,쇼핑센터,201447.418693099,454477.103343093
1,영업/정상,서울특별시 성북구 삼선교로 6 (삼선동1가),홈플러스익스프레스 삼선점,구분없음,200509.660547343,453950.640893998
1,영업/정상,서울특별시 성북구 동소문로18길 18 돈암제일시장 고객편의센터 (동소문동5가),돈암시장,시장,201336.750500414,454358.426908509
1,영업/정상,서울특별시 성북구 장월로12길 41-1 장위전통시장 상인회 (장위동),장위전통시장상인회,시장,204407.250844173,456638.194541249
2,휴업,,코코마트,그 밖의 대규모점포,204367.347787613,456732.945005445
2,휴업,,코코마트,그 밖의 대규모점포,204367.347787613,456732.945005445
2,휴업,,신세계백화점 미아점,백화점,202555.30089577,456503.066230481
2,휴업,,길음시장,그 밖의 대규모점포,201876.521665604,455664.635302013
3,폐업,서울특별시 성북구 길음로13길 22 (길음동 길음뉴타운7단지두산위브아파트),롯데마이슈퍼 길음점,구분없음,201706.21404800000,456753.56564300000
3,폐업,,장석시장,시장,205020.608686581,456783.766604012
3,폐업,,종암시장,시장,,
3,폐업,,돈암시장,시장,,
3,폐업,서울특별시 성북구 동소문로 98 (동소문동5가),롯데마이슈퍼 동소문점,구분없음,201358.893989884,454439.085102224
1,영업/정상,서울특별시 강북구 도봉로67길 18 수유시장 (수유동),수유시장,그 밖의 대규모점포,201956.180985499,458714.365820521
1,영업/정상,서울특별시 강북구 노해로17길 21 수유중앙시장 (수유동),수유중앙시장,그 밖의 대규모점포,201812.904685238,459775.992830125
1,영업/정상,서울특별시 강북구 솔샘로 233 동북프라자 (미아동),동북프라자,그 밖의 대규모점포,201589.777957863,457545.100871485
1,영업/정상,서울특별시 강북구 도봉로33길 18 (미아동),(주)농협유통 미아점,대형마트,202266.448738483,457691.802407444
1,영업/정상,서울특별시 강북구 도봉로 172 (미아동),홈플러스(주)익스프레스미아점,대형마트,202344.117949112,457986.172253906
1,영업/정상,서울특별시 강북구 한천로123길 26 (번동),북부시장,시장,202608.934103734,459320.030764534
1,영업/정상,서울특별시 강북구 솔샘로 233 동북프라자 (미아동),동북시장,그 밖의 대규모점포,201589.777957863,457545.100871485
1,영업/정상,서울특별시 강북구 노해로23길 68 (수유동),우이시장,시장,201692.868936629,460402.065518179
1,영업/정상,서울특별시 강북구 도봉로 52 (미아동),연이스퀘어,쇼핑센터,202615,456822
1,영업/정상,서울특별시 강북구 도봉로 261 (수유동 삼호아파트수유프라자),수유프라자,복합쇼핑몰,202000.513660624,458815.97773382
1,영업/정상,서울특별시 강북구 도봉로 261 (수유동),수유프라자,그 밖의 대규모점포,202000.513660624,458815.97773382
1,영업/정상,서울특별시 강북구 도봉로 45 (미아동),숭인시장,그 밖의 대규모점포,202558.581755334,456709.916330722
1,영업/정상,서울특별시 강북구 한천로148길 12-43 (수유동),강북종합시장,시장,202197.096261719,459964.530646857
1,영업/정상,서울특별시 강북구 삼양로91길 11-12 (수유동),수유북부시장,그 밖의 대규모점포,201354.553491054,459317.583083716
1,영업/정상,서울특별시 강북구 도봉로 34 (미아동),트레지오,복합쇼핑몰,202642.446045912,456636.308192293
1,영업/정상,서울특별시 강북구 한천로148길 12-43 (수유동),강북종합시장,그 밖의 대규모점포,202197.096261719,459964.530646857
1,영업/정상,서울특별시 강북구 한천로123길 26 (번동),강북 북부시장,시장,202608.934103734,459320.030764534
1,영업/정상,서울특별시 강북구 삼양로27길 35-21 (미아동),(주)지에스리테일GS수퍼 강북미아점,대형마트,201602.577531291,457290.100695375
1,영업/정상,서울특별시 강북구 도봉로 157 112호 (미아동 두원프라자),(주)이마트에브리데이 미아동점,대형마트,202314.47965444,457821.853133872
2,휴업,,수유프라자,그 밖의 대규모점포,202000.513660624,458815.97773382
﻿2,휴업,,강북종합시장,그 밖의 대규모점포,,
2,휴업,,트레지오,쇼핑센터,,
3,폐업,서울특별시 강북구 삼양로19길 25 110동 지하1층 5호6호 (미아동 삼성래미안트리베라1차),롯데쇼핑(주)롯데슈퍼미아점,대형마트,201760.433753367,456845.373829971
3,폐업,서울특별시 강북구 한천로148길 12-43 (수유동),강북종합시장,시장,202168.158127118,459990.614346147
3,폐업,서울특별시 강북구 도봉로33길 18 (미아동),성북프라자,그 밖의 대규모점포,202266.448738483,457691.802407444
3,폐업,서울특별시 강북구 덕릉로 176 (번동),(주)지에스리테일번동점,대형마트,202888.313576922,459197.373185929
3,폐업,서울특별시 강북구 도봉로67길 18 (수유동),롯데쇼핑(주)롯데슈퍼수유점,대형마트,201956.180985499,458714.365820521
3,폐업,서울특별시 강북구 삼양로27길 19 (미아동),롯데쇼핑(주)롯데슈퍼삼양점,대형마트,201731.684416461,457219.335594234
1,영업/정상,서울특별시 도봉구 방학로5길 33 금강아미움파크타운 (쌍문동 금강아미움파크타운),금강아미움쇼핑센터,그 밖의 대규모점포,203296.164641727,462113.860476609
1,영업/정상,서울특별시 도봉구 도봉로104길 53 (창동),(주)이마트에브리데이 창동점,구분없음,203027.627111443,460124.418353378
1,영업/정상,서울특별시 강북구 도봉로 62 (미아동),롯데백화점 미아점,복합쇼핑몰,202625.646264572,456875.973976242
1,영업/정상,서울특별시 도봉구 방학로 223 (방학동),신동아프라자,그 밖의 대규모점포,202326.175760253,462116.40856417
1,영업/정상,서울특별시 도봉구 도봉로180나길 41 (도봉동),도봉한신쇼핑상가,그 밖의 대규모점포,204169.847670316,464814.717432497
1,영업/정상,서울특별시 도봉구 덕릉로63가길 61 (창동),대우상가,그 밖의 대규모점포,203242.968498731,460001.081136921
1,영업/정상,서울특별시 도봉구 마들로 724 (도봉동),도봉한양프라자,그 밖의 대규모점포,204136.58447783,463573.102150294
1,영업/정상,서울특별시 도봉구 시루봉로 103-1 1층 (방학동),GS THE FRESH 방학신동아점,구분없음,202338.53055755,461983.524000809
1,영업/정상,서울특별시 도봉구 도봉로104길 53 (창동),(주)에브리데이리테일 창동점,구분없음,203027.627111443,460124.418353378
1,영업/정상,,개봉중앙시장,그 밖의 대규모점포,,
1,영업/정상,서울특별시 도봉구 도봉로 678 (방학동),홈플러스(주)방학점,대형마트,203790.013568785,462495.417040876
1,영업/정상,서울특별시 도봉구 덕릉로57길 30 (창동),삼익쇼핑,그 밖의 대규모점포,203220.921406024,459746.924430501
1,영업/정상,서울특별시 도봉구 노해로65길 4 (창동),(주) 이마트 창동점,대형마트,204107.090272108,461072.642448925
1,영업/정상,서울특별시 도봉구 도봉로104길 53 (창동),(주)에브리데이리테일 창동점,구분없음,203027.627111443,460124.418353378
2,휴업,,그랜드백화점(주)마트화곡점,대형마트,186786.622461585,450297.70265223
3,폐업,서울특별시 도봉구 시루봉로 2 (쌍문동),롯데슈퍼 쌍문4동 가맹점,구분없음,202472.188994485,460959.462860458
3,폐업,서울특별시 도봉구 마들로 645 (방학동),롯데쇼핑(주)VIC마켓도봉점,대형마트,203920.444016775,462830.484935873
1,영업/정상,서울특별시 노원구 덕릉로 690 1층 (중계동),(주)이마트에브리데이 상계역점,구분없음,206616.300077726,461867.94710054
1,영업/정상,서울특별시 노원구 동일로 1101 (공릉동),홈플러스(주)익스프레스 공릉점,구분없음,206222.082661025,458423.440177534
1,영업/정상,서울특별시 노원구 마들로 31 (월계동),(주)지에스리테일 GS슈퍼 노원월계점,구분없음,205984.15211292,457275.799282625
1,영업/정상,서울특별시 노원구 노원로1길 67 (공릉동),(주)이마트에브리데이 공릉동점,구분없음,207311.175792021,457610.711998051
1,영업/정상,서울특별시 노원구 한글비석로 57 (하계동 세이브존),세이브존,그 밖의 대규모점포,206044.776421388,459360.877718439
1,영업/정상,서울특별시 노원구 동일로204가길 12 (중계동),홈플러스(주) 중계점,대형마트,205985.953324881,459730.43776924
1,영업/정상,서울특별시 노원구 동일로 1701 (상계동 희성오피앙),오피앙,그 밖의 대규모점포,204772.500639238,464208.305428933
1,영업/정상,서울특별시 노원구 마들로3길 15 (월계동 월계이마트),이마트타운 월계점,쇼핑센터,205391.070378059,458333.989216339
1,영업/정상,서울특별시 노원구 노원로 330 (중계동 롯데마트),롯데마트 중계점,복합쇼핑몰,206132.432496938,460549.311157153
1,영업/정상,서울특별시 노원구 노해로 507 (상계동),와우패션클럽,그 밖의 대규모점포,205557.013355638,461441.687971047
1,영업/정상,,건영옴니백화점,백화점,205645.891969072,459609.012509743
1,영업/정상,서울특별시 노원구 상계로23다길 13-8 (상계동),노원아이파크 상가,그 밖의 대규모점포,206033.023278317,461935.33920381
1,영업/정상,서울특별시 노원구 한글비석로 471 (상계동),(주)지에스리테일 GS수퍼상계점,구분없음,205715.538939251,462416.211580109
1,영업/정상,서울특별시 노원구 한글비석로 232 (중계동 유경데파트),유경데파트,그 밖의 대규모점포,206719.586259379,460669.836412326
1,영업/정상,서울특별시 마포구 토정로 282 (용강동),홈플러스익스프레스 용강점,구분없음,194695.797060075,448818.967990515
1,영업/정상,서울특별시 노원구 동일로180길 14 (공릉동 공릉종합상가),공릉종합상가,그 밖의 대규모점포,206578.976039388,457736.364674901
1,영업/정상,서울특별시 노원구 중계로 225 (중계동),홈플러스(주)익스프레스 중계점,구분없음,206490.247358174,460830.615360327
2,휴업,,롯데백화점 상계점,백화점,205320.28476675,461419.881795004
2,휴업,,세이브존,대형마트,205994.811815848,459502.645279682
2,휴업,,신세계 이마트 월계덤,그 밖의 대규모점포,205391.070378059,458333.989216339
2,휴업,,신세계 이마트 월계점,대형마트,205391.070378059,458333.989216339
2,휴업,,세이브존,대형마트,205994.811815848,459502.645279682
2,휴업,,상계중앙시장,그 밖의 대규모점포,,
3,폐업,서울특별시 노원구 노원로 3 (공릉동),(주)지에스리테일  공릉점,구분없음,207577.515810212,457741.465197875
3,폐업,,(주)지에스리테일 GS수퍼상계중앙점,대형마트,206033.023278317,461935.33920381
﻿1,영업/정상,,수일시장,그 밖의 대규모점포,,
1,영업/정상,서울특별시 은평구 불광로 20 (대조동),팜스퀘어,쇼핑센터,193661.732383169,456379.193899276
1,영업/정상,,대림시장,시장,192661.661318718,453828.585982771
1,영업/정상,,개봉제일시장,그 밖의 대규모점포,,
1,영업/정상,서울특별시 은평구 통일로 850 (불광동),연서시장,그 밖의 대규모점포,193042.519283201,457459.367971725
1,영업/정상,서울특별시 은평구 통일로 842 (불광동),롯데쇼핑(주)롯데슈퍼범서점,그 밖의 대규모점포,193035.279146132,457365.911737494
1,영업/정상,서울특별시 은평구 응암로 252 (응암동),응암시장,그 밖의 대규모점포,192738.381117433,454678.898500315
1,영업/정상,서울특별시 은평구 불광로 90-0 (불광동),대호프라자상가,복합쇼핑몰,194002.701726955,456937.542510222
1,영업/정상,,서부종합시장,그 밖의 대규모점포,,
1,영업/정상,서울특별시 은평구 통일로 780 (불광동),불광미성상가,그 밖의 대규모점포,193600.888431741,456957.233580498
1,영업/정상,서울특별시 은평구 갈현로 10 (신사동),홈플러스(주)익스프레스 신사점,그 밖의 대규모점포,192012.208564616,455177.704494531
1,영업/정상,서울특별시 은평구 서오릉로 222 (갈현동),홈플러스 익스프레스 갈현점,그 밖의 대규모점포,191953.940215578,456960.687756827
1,영업/정상,서울특별시 은평구 통일로 842 (불광동),범서쇼핑,쇼핑센터,193035.279146132,457365.911737494
1,영업/정상,,현대화유통기업(주),대형마트,,
1,영업/정상,,(주)미소종합유통,대형마트,,
1,영업/정상,서울특별시 은평구 통일로 856 (불광동),메트로,쇼핑센터,192998.202204135,457479.99522553
1,영업/정상,서울특별시 은평구 수색로 217 (수색동),(주)이마트 수색점,대형마트,190977.850603548,453037.787995874
1,영업/정상,서울특별시 은평구 은평로 111 (응암동),(주)이마트 은평점,대형마트,192882.837727443,455340.54056388
1,영업/정상,서울특별시 은평구 진흥로1길 28 (역촌동),서부종합시장,시장,192773.974598512,455630.884111772
1,영업/정상,서울특별시 은평구 서오릉로 145 (구산동),홈플러스(주)익스프레스구산점,그 밖의 대규모점포,192563.874496397,456570.084566278
1,영업/정상,서울특별시 은평구 응암로 247 (응암동),홈플러스(주)익스프레스응암점,그 밖의 대규모점포,192674.132684249,454664.166810326
1,영업/정상,서울특별시 은평구 불광로 121 (불광동),홈플러스(주)익스프레스 불광점,그 밖의 대규모점포,194003.88391829,457260.736492005
2,휴업,서울특별시 은평구 증산로3길 12 (증산동),증산시장,그 밖의 대규모점포,191545.050373675,453244.229758597
2,휴업,,대림시장,그 밖의 대규모점포,,
2,휴업,서울특별시 은평구 은평로 111 (응암동),신세계이마트 은평점,대형마트,192882.837727443,455340.54056388
2,휴업,서울특별시 은평구 은평로 111 (응암동),신세계이마트 은평점,대형마트,192882.837727443,455340.54056388
2,휴업,,불광시장(법인 대표자 관리자변경),그 밖의 대규모점포,,
3,폐업,서울특별시 은평구 갈현로 300 (갈현동),갈현시장,그 밖의 대규모점포,192640.073875,457921.155872
3,폐업,서울특별시 은평구 불광로 60 (불광동),(주)이마트 에브리데이 불광동점,그 밖의 대규모점포,193936.125681025,456673.805557751
3,폐업,서울특별시 은평구 연서로 215 (갈현동),롯데쇼핑(주)롯데슈퍼갈현점,그 밖의 대규모점포,192809.366974137,457275.285596868
3,폐업,서울특별시 은평구 통일로 867 (갈현동),롯데쇼핑(주)롯데슈퍼연신내점,그 밖의 대규모점포,192859.341264055,457545.793599332
3,폐업,서울특별시 은평구 서오릉로 95 (역촌동),홈플러스(주) 익스프레스 역촌점,그 밖의 대규모점포,192920.728012559,456218.215950436
1,영업/정상,,대조시장,그 밖의 대규모점포,,
1,영업/정상,,불광시장(주),그 밖의 대규모점포,,
1,영업/정상,서울특별시 은평구 통일로 1050 (진관동 롯데몰은평점),롯데몰 은평,쇼핑센터,192655.756373115,459477.20943887
1,영업/정상,서울특별시 통일로 484 (유진상가),유진상가,시장,194811.756333333,454300.739666667
1,영업/정상,서울특별시 서대문구 수색로2길 45 (남가좌동),모래내시장(주),시장,192503.128282531,452051.272452155
1,영업/정상,서울특별시 서대문구 수색로2길 47 (남가좌동),서중시장,시장,192517.640245956,452143.491541077
1,영업/정상,서울특별시 서대문구 신촌로 83 (창천동),현대백화점 신촌점,백화점,194265.067639805,450433.691021245
1,영업/정상,서울특별시 서대문구 신촌역로 30 (신촌동),신촌 밀리오레,그 밖의 대규모점포,194798.458435966,450837.051726331
1,영업/정상,서울특별시 서대문구 이화여대1길 10 (대현동),예스에이피엠,그 밖의 대규모점포,195063.820722531,450597.874088644
1,영업/정상,서울특별시 서대문구 연희맛로 23 (연희동),연희슈퍼마켓,시장,193716.339877929,451653.563671802
1,영업/정상,서울특별시 서대문구 응암로 54 (북가좌동),(주)GS리테일 북가좌점,구분없음,192000.945942229,452848.009128439
1,영업/정상,서울특별시 서대문구 통일로 397 지4층 (홍제동 인왕산 한신휴플러스),롯데슈퍼 홍제2점,구분없음,195281.395461663,453657.534811024
1,영업/정상,서울특별시 서대문구 통일로 484 유진상가 1층 (홍제동),롯데슈퍼 유진점,구분없음,194850.361025035,454344.432517428
2,휴업,,삼성테스코(주)홈플러스강서점,대형마트,187119.948165892,450691.593173724
1,영업/정상,서울특별시 마포구 광성로 17 상가동 127호 (신수동 신촌숲아이파크),GS THE FRESH 신촌숲아이파크점,구분없음,194158.70131685,449853.982367014
1,영업/정상,서울특별시 서대문구 홍은중앙로 89(홍은동),이마트에브리데이 홍은점,구분없음,195280.710219904,455193.014698844
1,영업/정상,서울특별시 서대문구 거북골로 100 지하3층 32333435호 (남가좌동 래미안 루센티아),GS THE FRESH 남가좌디엠씨점,구분없음,192728.938667675,452585.54164581
1,영업/정상,서울특별시 서대문구 통일로 484 유진상가 (홍제동),롯데슈퍼 유진점(X),구분없음,194850.361025035,454344.432517428
﻿1,영업/정상,서울특별시 서대문구 응암로 112 (북가좌동),홈플러스(주) 익스프레스 북가좌점,구분없음,192301.135452392,453354.065487403
1,영업/정상,서울특별시 마포구 양화로 188 (동교동),AK&홍대,쇼핑센터,193565.900355472,450545.668460987
1,영업/정상,서울특별시 마포구 대흥로24길 24 마포 프레스티지 자이 아파트 단지 내 상가 A동 115~119호 (염리동),GS THE FRESH 마포염리점,구분없음,195243.086998177,450223.927419359
1,영업/정상,서울특별시 마포구 토정로 193 (구수동),롯데슈퍼 마포점,그 밖의 대규모점포,193981.312705953,449301.692398118
1,영업/정상,서울특별시 마포구 연남로 30 (연남동 코오롱하늘채아파트),홈플러스익스프레스 연남점,그 밖의 대규모점포,192899.605749281,451360.660991625
1,영업/정상,서울특별시 마포구 양화로 176 (동교동),스타피카소 아울렛,전문점,193282.130799848,450549.280167182
1,영업/정상,서울특별시 마포구 마포대로6길 16 마포시장 (공덕동),마포시장,시장,195804.563731799,449216.311329217
1,영업/정상,서울특별시 마포구 백범로 212 (신공덕동),(주)이마트 마포점,대형마트,195878.74153800000,449214.25326500000
1,영업/정상,서울특별시 마포구  백범로  212 (신공덕동),(주)이마트 마포점,대형마트,195808.904523588,448910.741283532
1,영업/정상,서울특별시 마포구 양화로 45 (서교동 메세나폴리스),홈플러스 합정점,대형마트,192414.026879919,450075.48980200000
1,영업/정상,서울특별시 마포구 성미산로 198 (연남동),동진시장,시장,193456.606360958,451125.467333415
1,영업/정상,서울특별시 마포구 월드컵로 240 (성산동월드컵경기장내),홈플러스(주)월드컵점,대형마트,191010.381048042,451972.154018501
1,영업/정상,서울특별시 마포구 만리재로 19 (공덕동),공덕시장,시장,195810.079475465,449173.775965909
1,영업/정상,서울특별시 마포구 양화진길 5 (합정동),합정시장,시장,192257.393762526,449554.484192321
1,영업/정상,서울특별시 마포구  신촌로  94 (노고산동),정도진흥기업(주),그 밖의 대규모점포,194273.598098938,450318.724130121
1,영업/정상,,성산시장,시장,,
1,영업/정상,서울특별시 마포구 동교로12길 21 (서교동),영진시장,시장,192214.380853693,450136.910982644
1,영업/정상,서울특별시 마포구 토정로17길 17 (신수동),신수시장,시장,194236.734674521,449243.162717684
1,영업/정상,서울특별시 마포구 월드컵로25길 26 (망원동),성산프라자(마포영화블렌하임),그 밖의 대규모점포,191651.529315787,450694.803472189
1,영업/정상,서울특별시 마포구 양화로 176 (동교동),YZ Park 홍대점,전문점,193296.791432042,450562.931242819
1,영업/정상,서울특별시 마포구 도화4길 73 (도화동 현대홈타운),홈플러스익스프레스 도화점,그 밖의 대규모점포,195669.217619713,448393.658663222
1,영업/정상,서울특별시 마포구 홍익로3길 20 (서교동),서교시장,시장,193009.20810189,450142.186927747
1,영업/정상,서울특별시 마포구 월드컵로 235 (성산동),마포농수산물시장,시장,190931.000875925,451427.722144609
1,영업/정상,서울특별시 마포구 창전로 45 (창전동),마포종합시장(서강한화오벨리스크),그 밖의 대규모점포,193905.437192262,449372.496499689
2,휴업,서울특별시 마포구 월드컵로 235 (성산동),마포농수산물시장,그 밖의 대규모점포,190931.000875925,451427.722144609
3,폐업,서울특별시 마포구 마포대로 53 (도화동),마포트라팰리스 아케이드,그 밖의 대규모점포,195266.07314617,448799.641804029
3,폐업,서울특별시 마포구 숭문길 96 (염리동),염리시장,시장,195236.100682981,449819.816379696
3,폐업,서울특별시 마포구 신촌로 86 (노고산동),신촌상가,시장,194158.369649874,450273.194140715
3,폐업,서울특별시 마포구 신촌로 88 (노고산동),롯데슈퍼 신촌점,구분없음,194219.19139038,450346.609802096
3,폐업,서울특별시 마포구 월드컵로 80 (서교동),홈플러스익스프레스 망원점,구분없음,192018.039124439,450449.030804033
3,폐업,서울특별시 마포구 월드컵북로5나길 18 (서교동),신교시장,그 밖의 대규모점포,192577.990805265,450569.670545853
1,영업/정상,서울특별시 마포구 와우산로35길 50-4 (동교동),홍대복합역사 상업시설,쇼핑센터,193565.900355472,450545.668460987
1,영업/정상,서울특별시 양천구 신정로13길 3 대우미래사랑5차아파트 103~105호 (신정동),롯데프레시 신정점,그 밖의 대규모점포,186071.979697827,445297.986765501
1,영업/정상,서울특별시 양천구 화곡로 59 (신월동),(주)이마트 신월점,구분없음,184796.999053109,448625.389554748
1,영업/정상,서울특별시 양천구 중앙로 255-1 (신정동),홈플러스(주)익스프레스 신정점,구분없음,186934.14769332,446336.680481997
1,영업/정상,서울특별시 양천구 목동서로 130 관리동 105호 (목동목동4단지아파트),(주)이마트에브리데이 목동점,구분없음,188580.483661607,447750.845210817
1,영업/정상,서울특별시 양천구 목동중앙본로7길 45 (목동),목동시장아울렛,그 밖의 대규모점포,188117.351835882,448552.989897945
1,영업/정상,서울특별시 양천구 지양로 78 (신월동),우성상가시장,시장,185221.95790954,446727.354964214
1,영업/정상,서울특별시 양천구 목동동로 257 (목동),현대백화점목동점,백화점,188884.075622342,447186.888604306
1,영업/정상,서울특별시 양천구 목동동로 309 (목동),행복한백화점,백화점,188977.171050288,447466.355031447
1,영업/정상,서울특별시 양천구 목동남로4길 2 (신정동),신정동세양청마루2차상가,그 밖의 대규모점포,187954.189632117,445124.131588947
1,영업/정상,서울특별시 양천구 목동서로 170 (목동),홈플러스(주)목동점,쇼핑센터,188729.190478822,447572.610039376
1,영업/정상,서울특별시 양천구 목동남로4길 2 (신정동 세양청마루2차주상복합),(주)지에스리테일 신정2점,구분없음,187954.189632117,445124.131588947
1,영업/정상,서울특별시 양천구 등촌로 172 (목동),홈플러스(주)익스프레스 목동2점,구분없음,187788.82257199,449204.635182585
1,영업/정상,서울특별시 양천구 목동서로 100 105호 (목동목동3단지아파트 관리동상가),롯데슈퍼 목동2점,구분없음,188700.851169641,448020.090999138
1,영업/정상,서울특별시 양천구 목동동로 53 103~108호 (신정동굿모닝탑),홈플러스(주)익스프레스 신정3점,구분없음,187619.993071747,445879.054862903
1,영업/정상,서울특별시 양천구 목동중앙북로 7 (목동),신한이모르젠상가,그 밖의 대규모점포,187955.121454906,449649.016215774
1,영업/정상,서울특별시 양천구 공항대로 610 (목동514514526527528530번지일대),목2동시장상인회,시장,188635.230900983,449396.806374349
1,영업/정상,,목4동시장상인회,시장,,
1,영업/정상,,경창시장상인회,시장,,
﻿1,영업/정상,,목3동시장상인회,시장,,
1,영업/정상,,신영시장상인회,시장,,
1,영업/정상,서울특별시 양천구 오목로 299 (목동),(주)이마트 목동점,대형마트,188551.299139509,447076.288051741
2,휴업,,신세계이마트(공항점),대형마트,,
1,영업/정상,서울특별시 양천구 목동중앙북로 68 (목동 목동에버하임),목동에버하임,그 밖의 대규모점포,,
1,영업/정상,서울특별시 양천구 목동로 183(신정동),(주)이마트에브리데이 목동역점,구분없음,187929.395106977,446964.609090888
2,휴업,서울특별시 양천구 목동중앙북로 7 (목동),신한이모르젠상가,그 밖의 대규모점포,187955.121454906,449649.016215774
3,폐업,서울특별시 양천구 오목로 354 지하1층 (목동 목동센트럴푸르지오),(주)이마트SSG목동점,그 밖의 대규모점포,189062,446850
3,폐업,서울특별시 양천구 중앙로32길 55 (신정동),롯데쇼핑(주)롯데슈퍼 신목동점,,187523.574256064,446408.633352149
3,폐업,서울특별시 양천구 목동로 223 (신정동),롯데쇼핑(주)롯데슈퍼목동점,구분없음,187889.318611598,447351.606624409
3,폐업,서울특별시 양천구 오목로 224 (신정동),롯데쇼핑(주)롯데슈퍼신정점,구분없음,187769.95711697,447053.907321165
3,폐업,서울특별시 양천구 목동서로 170 (목동),(주)이랜드리테일,쇼핑센터,188729.190478822,447572.610039376
3,폐업,,신세계 이마트 목동점,대형마트,,
3,폐업,서울특별시 양천구 오목로 299 (목동목동트라팰리스 내),(주)신세계이마트 목동점,대형마트,188551.299139509,447076.288051741
1,영업/정상,서울특별시 양천구 목동중앙북로 68 (목동 목동에버하임),목동에버하임,그 밖의 대규모점포,,
1,영업/정상,서울특별시 강서구 양천로 410 (가양동),노브랜드 강서가양점,구분없음,186374.463682775,451431.251130887
1,영업/정상,서울특별시 강서구 마곡서로 158 마곡센트럴타워Ⅱ 103~110 118 119호 (마곡동),이마트에브리데이 마곡점,구분없음,184498,451786
1,영업/정상,서울특별시 강서구 양천로 344 마곡센트럴대방디엠시티오피스텔 121-12호 (마곡동),롯데쇼핑㈜ 마켓999 양천향교역가맹점,구분없음,185798,451778
1,영업/정상,서울특별시 강서구 허준로 16-12 동남빌딩 (가양동),㈜이마트에브리데이 양천향교역점,구분없음,186080.902016621,451971.178722228
1,영업/정상,서울특별시 강서구 마곡서로 101 동익드미라벨복합빌딩 (마곡동),노브랜드 강서마곡점,구분없음,184386,451226
1,영업/정상,서울특별시 강서구 화곡로 274 (화곡동 외4필지 크라운뷰 1층 104~109),(주)이마트에브리데이 화곡동점,그 밖의 대규모점포,186456.187657133,449645.45192818
1,영업/정상,서울특별시 강서구 강서로 179 (화곡동),롯데쇼핑(주)롯데슈퍼화곡3동점,그 밖의 대규모점포,185731.051239902,448913.76093431
2,휴업,,(주)공항시장,그 밖의 대규모점포,,
1,영업/정상,서울특별시 강서구 화곡로 153 (화곡동),홈플러스(주) 익스프레스 화곡점,그 밖의 대규모점포,185681.122656637,448813.441620263
1,영업/정상,,(주)공항시장,시장,,
1,영업/정상,서울특별시 강서구  화곡로  398 (등촌동),홈플러스(주) 강서점,대형마트,187119.948165892,450691.593173724
3,폐업,서울특별시 양천로 559 (가양이마트(E-MART)),(주)이마트 가양점,대형마트,187761.194273879,450640.214509068
1,영업/정상,서울특별시 강서구 등촌로5길 80 (화곡동),씨에스유통 (롯데슈퍼화곡2점),그 밖의 대규모점포,187464.403178638,447877.710664426
1,영업/정상,서울특별시 강서구 방화동로 126 (방화동),삼정프라자,그 밖의 대규모점포,183315.556652953,452204.165533971
1,영업/정상,서울특별시 강서구 화곡로18길 24 (화곡동 강서 뉴타워),강서 뉴타워,그 밖의 대규모점포,185384.322720871,448552.124723353
1,영업/정상,서울특별시 강서구 양천로 687 1층 (염창동),(주)지에스리테일 염창점,그 밖의 대규모점포,188680.48304204,449829.694259357
4,취소/말소/만료/정지/중지,,에쉐르아이시네마쇼핑몰,쇼핑센터,,
1,영업/정상,서울특별시 강서구 양천로 431 (가양동 홈플러스),홈플러스(주) 가양점,대형마트,186687.131804431,451342.773451086
1,영업/정상,서울특별시 강서구 강서로 267 (내발산동),송화시장,그 밖의 대규모점포,185431.066605778,449714.813765198
1,영업/정상,서울특별시 강서구 공항대로71길 49 (염창동),스페이스프라자,그 밖의 대규모점포,188692.033242329,449699.83258499
1,영업/정상,서울특별시 강서구 까치산로 106 (화곡동),홈플러스익스프레스 화곡2점,그 밖의 대규모점포,186614.431263557,449481.253638067
3,폐업,서울특별시 강서구 월정로30길 69 (화곡동),화곡중앙시장,시장,185745.73257287,448140.292711073
2,휴업,,방신종합시장 재건축조합,그 밖의 대규모점포,183315.556652953,452204.165533971
2,휴업,,(주)이랜드리테일홈에버가양점,쇼핑센터,186687.131804431,451342.773451086
3,폐업,서울특별시 강서구 공항대로59다길 101 (염창동),롯데쇼핑(주)롯데슈퍼 염창2점,그 밖의 대규모점포,188320.272052969,449937.289956105
3,폐업,서울특별시 강서구 강서로 287 1층 (내발산동 호경빌딩),(주)에브리데이리테일 발산동점,그 밖의 대규모점포,185508.99521600000,450225.17579600000
3,폐업,,GS수퍼마켓 강서방화점,그 밖의 대규모점포,183124.298223484,451762.949220308
3,폐업,서울특별시 강서구 양천로67길 99 (염창동),롯데쇼핑(주)롯데슈퍼 염창점,그 밖의 대규모점포,188564.428051183,450381.673344615
3,폐업,,그랜드백화점(주)마트강서점,대형마트,185732.424363656,450884.528795882
3,폐업,서울특별시 강서구 하늘길 38 (방화동),테크노스카이시티,그 밖의 대규모점포,182735.786874703,451591.610813727
3,폐업,서울특별시 강서구  강서로68길  23 (등촌동),대지종합유통물류시장,그 밖의 대규모점포,185994.964119824,451596.45849391
3,폐업,서울특별시 강서구 하늘길 70 (공항동 (주)이마트 공항점),(주)이마트 공항점,대형마트,182141.205465089,451078.47991
3,폐업,,아름다운아울렛,전문점,186966.036176588,451047.287263879
1,영업/정상,,개봉프라자,그 밖의 대규모점포,,
1,영업/정상,,라이프공구종합상가,그 밖의 대규모점포,,
﻿1,영업/정상,,고척시장,그 밖의 대규모점포,,
1,영업/정상,,배영설비(주),그 밖의 대규모점포,,
1,영업/정상,서울특별시 구로구 중앙로3길 50 (고척동 고척산업용품종합상가),고척산업용품상가,그 밖의 대규모점포,187619.596959162,444186.923109714
1,영업/정상,서울특별시 구로구 구일로10길 93 (구로동),사모아종합상가,그 밖의 대규모점포,189052.101789082,443748.279289935
1,영업/정상,,서울구로기계공구상가,그 밖의 대규모점포,,
1,영업/정상,,공구상가일번지,그 밖의 대규모점포,,
1,영업/정상,서울특별시 구로구 경인로 393-7 (고척동 123전자타운),일이삼전자타운,그 밖의 대규모점포,187826.698183821,443925.52468616
1,영업/정상,서울특별시 구로구 경인로 192 (오류동),삼익쇼핑센타,쇼핑센터,186015.738369848,443657.614265375
1,영업/정상,서울특별시 영등포구 여의동로3길 10 (여의도동),(주)이마트 여의도점,대형마트,193393.096553574,446218.443828439
1,영업/정상,서울특별시 구로구 경인로53길 15 (구로동),중앙유통단지,그 밖의 대규모점포,188840.515865617,444306.771104527
1,영업/정상,서울특별시 구로구 경인로 661 신도림1차푸르지오 (신도림동),홈플러스(주) 신도림점,대형마트,190005.132500398,445250.538868558
1,영업/정상,서울특별시 구로구 구로중앙로 198 (구로동),서울구로기계공구상가,그 밖의 대규모점포,189277.761702183,444671.551731639
1,영업/정상,서울특별시 구로구 구로중앙로 237 (구로동),라이프공구상가,그 밖의 대규모점포,188907.966108621,444898.367647601
1,영업/정상,서울특별시 구로구 경인로43길 42 (고척동 고척산업용품상가),고척산업용품상가,복합쇼핑몰,187619.596959162,444186.923109714
1,영업/정상,서울특별시 구로구 고척로40길 19 (고척동),개봉프라자,시장,186769.616926353,444433.221606826
1,영업/정상,서울특별시 구로구 중앙로 64 (고척동),고척스카이프라자,그 밖의 대규모점포,187798.86926511,444629.704821749
1,영업/정상,서울특별시 구로구 개봉로3길 51 (개봉동),개봉제일시장,그 밖의 대규모점포,186968.288544829,442651.907780511
1,영업/정상,서울특별시 구로구 새말로 97 (구로동외 31필지),(주) 이마트 신도림점,대형마트,190232.524534335,444978.682746138
1,영업/정상,서울특별시 구로구 구로중앙로 134 (구로동),나인스에비뉴,그 밖의 대규모점포,189682.799434964,444193.860003095
1,영업/정상,서울특별시 구로구 구일로10길 93 (구로동),사모아종합상가,그 밖의 대규모점포,189052.101789082,443748.279289935
1,영업/정상,서울특별시 구로구 새말로 97 (구로동외 31필지),신도림 테크노마트,그 밖의 대규모점포,190232.524534335,444978.682746138
1,영업/정상,,가야쇼핑,시장,193750.825947451,442753.219280937
1,영업/정상,서울특별시 구로구 디지털로32길 43 (구로동),(주)이마트 구로점,대형마트,190901.977946718,442466.813410528
1,영업/정상,서울특별시 구로구 경인로 319 (개봉동외 1필지 대림프라자 101호),홈플러스 익스프레스 개봉점,구분없음,187158.443830013,443952.561879682
1,영업/정상,서울특별시  구일로10길 27 B동 1층 (제118호제119호제121호~126호),홈플러스 익스프레스 서울구로점,구분없음,188674.995072188,443749.503020388
1,영업/정상,,구로시장,그 밖의 대규모점포,,
1,영업/정상,,오류시장,그 밖의 대규모점포,,
1,영업/정상,서울특별시 구로구 경인로 662 (신도림동),주식회사 현대백화점 디큐브시티,백화점,190107.045415333,445157.626366229
1,영업/정상,서울특별시 구로구 개봉로17길 34 (개봉동),(주)이마트에브리데이 개봉동점,구분없음,187009.804317689,443302.607792578
1,영업/정상,서울특별시 구로구 서해안로 2293 (오류동외 2필지),홈플러스 익스프레스 서울오류점,구분없음,185756.174922711,443268.099008657
1,영업/정상,서울특별시 구로구 중앙로3길 49 (고척동),동국종합상가,그 밖의 대규모점포,187718.801171032,444056.996752313
1,영업/정상,서울특별시 구로구 경인로54길 4 (구로동),공구상가일번지,그 밖의 대규모점포,189134.15447044,444274.729874348
1,영업/정상,서울특별시 구로구 경인로 393-7 (고척동),일이삼전자타운,그 밖의 대규모점포,187826.698183821,443925.52468616
2,휴업,서울특별시 구로구 구로중앙로 152 (구로동),애경백화점,백화점,189570.360930049,444336.051330144
2,휴업,서울특별시 구로구 중앙로3길 49 (고척동),동국종합상가,그 밖의 대규모점포,187718.801171032,444056.996752313
2,휴업,서울특별시 구로구 경인로 482 (구로동),롯데마트 구로점,대형마트,188669.484398215,444010.738380277
2,휴업,서울특별시 구로구 경인로 482 (구로동),롯데마트 구로점,대형마트,188669.484398215,444010.738380277
2,휴업,서울특별시 구로구 경인로 482 (구로동),비엔큐홈(구로점),대형마트,188669.484398215,444010.738380277
2,휴업,서울특별시 구로구 중앙로1길 42 (고척동),일이삼전자타운,그 밖의 대규모점포,187756.919450472,443962.832747371
2,휴업,,삼익쇼핑센터,쇼핑센터,186015.738369848,443657.614265375
2,휴업,서울특별시 구로구 경인로53길 15 (구로동),중앙유통단지,그 밖의 대규모점포,188840.515865617,444306.771104527
2,휴업,서울특별시 구로구 디지털로32길 43 (구로동),(주)신세계이마트구로점,대형마트,190901.977946718,442466.813410528
2,휴업,서울특별시 구로구 디지털로32길 43 (구로동),(주)신세계이마트구로점,대형마트,190901.977946718,442466.813410528
2,휴업,서울특별시 구로구 중앙로1길 36 (고척동),이천일아울렛구로점,그 밖의 대규모점포,187785.840457798,443997.135869884
3,폐업,서울특별시 구로구 경인로 482 (구로동),롯데쇼핑(주) 롯데마트 구로점,대형마트,188669.484398215,444010.738380277
3,폐업,서울특별시 구로구 경인로 482 (구로동롯데마트 지하1층),롯데쇼핑(주) TRU구로점,전문점,188669.484398215,444010.738380277
3,폐업,서울특별시 구로구 구로중앙로 152 (구로동),AK PLAZA,백화점,189570.360930049,444336.051330144
1,영업/정상,,고척아이파크쇼핑센터,쇼핑센터,,
1,영업/정상,,이마트구로점,대형마트,,
1,영업/정상,서울특별시 금천구 시흥대로 315 금천롯데캐슬골드파크4차 (독산동),롯데캐슬 골드파크 4차 마르쉐도르 960,그 밖의 대규모점포,,
﻿1,영업/정상,서울특별시 금천구 시흥대로47길 43 (시흥동),럭키남서울상가,그 밖의 대규모점포,191026.637157812,438701.205634976
1,영업/정상,서울특별시 금천구 시흥대로 46 (시흥동),시흥중앙철재상가,그 밖의 대규모점포,191390.785127877,437280.574150819
1,영업/정상,서울특별시 금천구 시흥대로 109 (시흥동),시흥산업용재유통센타,그 밖의 대규모점포,191384.606290141,437986.940834791
1,영업/정상,서울특별시 금천구 범안로 1209 (독산동),유창상가,그 밖의 대규모점포,190771.595589599,440515.66903538
1,영업/정상,서울특별시 금천구 시흥대로52길 70 (시흥동),대명합동시장,그 밖의 대규모점포,191262.621370792,439137.99206467
1,영업/정상,서울특별시 금천구 시흥대로 391 (독산동),홈플러스(주) 금천점,대형마트,190809.507840375,440728.382273075
1,영업/정상,서울특별시 금천구 디지털로 185 (가산동),마리오아울렛 1관,쇼핑센터,189943.234285288,441784.247518723
1,영업/정상,서울특별시 금천구 벚꽃로 278 (가산동),롯데쇼핑(주) 아울렛 가산점,쇼핑센터,189722.178532426,441920.972770099
1,영업/정상,서울특별시 금천구 벚꽃로 30 (독산동 금천롯데캐슬골드파크2차),롯데캐슬 골드파크 2차 마르쉐도르,그 밖의 대규모점포,190567.418315661,439569.401459017
1,영업/정상,서울특별시 금천구 시흥대로 399 (독산동),시티렉스,쇼핑센터,190858.649482406,440808.541334678
1,영업/정상,서울특별시 금천구 남부순환로120길 23 (독산동),푸른터시장,그 밖의 대규모점포,191210.51770388,441768.833867706
1,영업/정상,서울특별시 금천구 시흥대로 97 (시흥동 시흥유통상가),시흥산업용재유통센터,그 밖의 대규모점포,191226.287379467,437914.06299827
1,영업/정상,서울특별시 금천구 시흥대로 201 (시흥동),홈플러스 시흥점,대형마트,191152.432649234,438865.160717275
1,영업/정상,서울특별시 금천구 가산로 106 (가산동),홈플러스(주)익스프레스 가산점,구분없음,190527.918536528,441484.865931033
1,영업/정상,서울특별시 금천구 벚꽃로 266 (가산동),마리오아울렛 3관,쇼핑센터,189759.713050655,441814.115920983
2,휴업,서울특별시 금천구 시흥대로 201 (시흥동외 1),(주)이랜드리테일 홈에버 시흥점,대형마트,191152.432649234,438865.160717275
2,휴업,서울특별시 금천구 시흥대로142길 24 (독산동외 27),남문시장,그 밖의 대규모점포,191127.423978879,441203.919968343
2,휴업,서울특별시 금천구 시흥대로62길 18 (시흥동외 87필지),현대시장,그 밖의 대규모점포,191224.607415902,439247.719038249
3,폐업,서울특별시 금천구 시흥대로18길 16 (시흥동),박미종합시장,그 밖의 대규모점포,191497.590452952,437562.242368734
3,폐업,서울특별시 금천구 금하로 705 (시흥동),플라자 카멜리아,그 밖의 대규모점포,191823.026849977,438834.378061101
3,폐업,서울특별시 금천구 시흥대로 473 (독산동),롯데쇼핑(주)롯데슈퍼독산점,구분없음,190901.481378795,441536.391463324
1,영업/정상,서울특별시 금천구 디지털로 188 (가산동),(주)원신더블유몰,쇼핑센터,189997.455663258,441687.841171831
1,영업/정상,서울특별시 금천구 디지털로10길 9 (가산동),현대아울렛,쇼핑센터,190119.463375612,441716.684586176
3,폐업,서울특별시 금천구 독산로 210 (독산동),홈플러스(주)익스프레스 독산점,구분없음,191290.582375374,440402.04012719
3,폐업,서울특별시  금하로 720,롯데쇼핑(주)롯데슈퍼 시흥점,구분없음,191917.450107657,438699.77460936
1,영업/정상,서울특별시 금천구 금하로 705 (시흥동),시흥중앙시장,그 밖의 대규모점포,191823.026849977,438834.378061101
1,영업/정상,서울특별시 금천구 시흥대로 391 (독산동),삼성테스코(주)홈플러스 금천점,대형마트,190809.507840375,440728.382273075
1,영업/정상,서울특별시 금천구 시흥대로 391 (독산동),삼성테스코(주)홈플러스 금천점,대형마트,190809.507840375,440728.382273075
1,영업/정상,서울특별시 영등포구  당산로  42 (문래동3가),홈플러스(주) 영등포점,대형마트,190729.506453391,446227.07504062
1,영업/정상,서울특별시 영등포구 당산로 34 (문래동3가),로데오 왁,전문점,190644.120684734,446104.925181837
1,영업/정상,서울특별시 영등포구 선유로 156 (양평동3가),코스트코 홀세일,대형마트,190408.509134733,447298.022173646
1,영업/정상,서울특별시 영등포구 영등포로 225 (영등포동5가),영신상가,그 밖의 대규모점포,191691.167905721,446411.007064006
1,영업/정상,서울특별시 영등포구 선유로 156 (양평동3가),코스트코홀세일,그 밖의 대규모점포,190408.509134733,447298.022173646
1,영업/정상,,영등포지하상가,그 밖의 대규모점포,,
1,영업/정상,,한화스토아여의점,그 밖의 대규모점포,,
1,영업/정상,,홍익상가,그 밖의 대규모점포,,
1,영업/정상,,도림시장,그 밖의 대규모점포,,
1,영업/정상,서울특별시 영등포구 선유동1로 5 (양평동1가),양남시장,그 밖의 대규모점포,190307.528282719,446742.556303998
1,영업/정상,,신동시장,그 밖의 대규모점포,,
1,영업/정상,서울특별시 영등포구 도신로60길 7 (신길동),대신시장,그 밖의 대규모점포,192643.702398007,445431.520857116
1,영업/정상,,대림시장,그 밖의 대규모점포,,
1,영업/정상,서울특별시 영등포구 대림로29길 13 (대림동),두암종합시장,그 밖의 대규모점포,190916.911377676,443681.766720649
1,영업/정상,,영등포농축수산물쎈타,그 밖의 대규모점포,,
1,영업/정상,,영등포역앞지하상가,그 밖의 대규모점포,,
1,영업/정상,,영등포로타리지하상가,그 밖의 대규모점포,,
1,영업/정상,,삼구시장,그 밖의 대규모점포,,
1,영업/정상,서울특별시 영등포구 영등포로37길 4 (영등포동5가),동남시장,그 밖의 대규모점포,191590.878296395,446489.41953806
1,영업/정상,,영일시장,그 밖의 대규모점포,,
1,영업/정상,서울특별시 영등포구 영등포로 109 (당산동2가),영등포유통관리(주),그 밖의 대규모점포,190555.768991595,446698.814322782
1,영업/정상,서울특별시 영등포구 문래로 164 영등포 SK 리더스뷰 (문래동3가),룩스쇼핑센터,전문점,191087.758954321,446157.437289242
﻿1,영업/정상,서울특별시 영등포구 여의동로3길 10 (여의도동여의도자이(아) 지하 1층),신세계 이마트 여의도점,대형마트,193393.096553574,446218.443828439
1,영업/정상,서울특별시 영등포구 영중로 15 (영등포동4가),타임스퀘어,쇼핑센터,191385.057392247,446098.555926507
1,영업/정상,서울특별시 영등포구 대림로 251 (대림동),롯데슈퍼 대림점,구분없음,190721.417931753,444571.769293729
1,영업/정상,서울특별시 영등포구 여의대방로 65 (신길동),홈플러스(주) 익스프레스 신길점,구분없음,192275.299730624,443891.073398846
1,영업/정상,서울특별시 영등포구 국제금융로 10 (여의도동),아이에프씨몰(IFC Mall),복합쇼핑몰,193326.931018911,446973.914570276
1,영업/정상,서울특별시 영등포구 대림로29길 13 (대림동 대림동 쌍용 플래티넘-S),두암상가,그 밖의 대규모점포,190916.911377676,443681.766720649
1,영업/정상,서울특별시 영등포구 신길로 41 (대림동),썬프라자,쇼핑센터,191800.728214995,443809.773854649
1,영업/정상,서울특별시 영등포구 도신로 75 (도림동),홈플러스(주) 익스프레스 도림점,구분없음,191157.139334361,444953.005202762
1,영업/정상,서울특별시 영등포구 가마산로69가길 12 (신길동),홈플러스(주) 익스프레스 신길3점,구분없음,191936.254364904,444885.168731883
1,영업/정상,서울특별시 영등포구 영등포로 364 (신길동),홈플러스(주) 익스프레스 신길2점,구분없음,192712.769279545,445770.103022217
1,영업/정상,서울특별시 영등포구 여의대로 108 (여의도동),THE HYUNDAI SEOUL,백화점,193592.000380036,447092.629432527
1,영업/정상,서울특별시 영등포구 선유서로24길 6 (양평동1가 영등포 중흥 S-CLASS),영등포 중흥 에스클래스,그 밖의 대규모점포,189877.032334127,446801.78225662
2,휴업,서울특별시 영등포구 63로 50 (여의도동),63씨티,그 밖의 대규모점포,194632.526367463,446401.926526228
2,휴업,서울특별시 영등포구 여의대로 128 (여의도동),(주)LG,그 밖의 대규모점포,193674.743726431,447296.226305826
3,폐업,서울특별시 영등포구 신풍로 93 메트하임 (신길동),메트하임,그 밖의 대규모점포,192558.271784626,444233.81892942
3,폐업,,코레일유통주식회사,그 밖의 대규모점포,191272.12099068,447064.885774633
3,폐업,서울특별시 영등포구 신길로 155 (신길동),(주)사러가,그 밖의 대규모점포,192041.032768335,444884.804266378
3,폐업,서울특별시 영등포구 가마산로69가길 17 1층 (신길동),(주)신영사러가,그 밖의 대규모점포,191994.505086626,444933.158731651
3,폐업,서울특별시 영등포구 영등포로 39 (양평동1가),영등포기계상가,그 밖의 대규모점포,189877.032334127,446801.78225662
3,폐업,서울특별시 영등포구 신길로 41 (대림동),롯데슈퍼 썬프라자점,구분없음,191800.728214995,443809.773854649
3,폐업,서울특별시 영등포구 영등포로 33 (양평동2가),홈플러스(주) 익스프레스 양평점,대형마트,189785.752470051,446796.882113561
4,취소/말소/만료/정지/중지,서울특별시 영등포구 영중로 28 (영등포동3가),영등포 점프밀라노,쇼핑센터,191580.646388785,446320.718339983
1,영업/정상,,대림쇼핑타운,시장,193273.484014052,445011.250115029
1,영업/정상,서울특별시 동작구 서달로 150 (흑석동),해가든프라자,그 밖의 대규모점포,196587.030630143,444939.455414947
1,영업/정상,서울특별시 동작구 성대로 43 (상도동),홈플러스(주) 익스프레스 상도점,구분없음,194064.994071226,444089.838269412
1,영업/정상,서울특별시 동작구 사당로 215 (사당동),홈플러스(주) 익스프레스 남성점,복합쇼핑몰,197507.834447319,442470.92961062
1,영업/정상,서울특별시 동작구 상도로 102 (상도동 성대시장),성대종합시장,그 밖의 대규모점포,193896.384765772,444196.484790728
1,영업/정상,서울특별시 동작구 상도로 81 (대방동),(주)이마트에브리데이 대방동점,복합쇼핑몰,193699.189949205,444190.844599349
1,영업/정상,서울특별시 동작구 사당로 300 (사당동 이수자이),(주)이마트 이수점,복합쇼핑몰,198202.472533419,442471.241038085
1,영업/정상,서울특별시 동작구 상도로31길 19 (상도동),(주)이마트에브리데이 상도동점,그 밖의 대규모점포,194963.274671696,444866.845573417
1,영업/정상,서울특별시 동작구 동작대로29길 110 (사당동 신동아아파트),(주)이마트에브리데이 사당동점,그 밖의 대규모점포,197802.054854046,443049.47147487
1,영업/정상,서울특별시 동작구 노량진로 4 (대방동),(주)홈플러스 대방점,그 밖의 대규모점포,193393.306385172,445577.513247441
1,영업/정상,서울특별시 동작구 만양로 26 (상도동),홈플러스 익스프레스 상도2점,구분없음,195489.423430508,444995.675592494
1,영업/정상,서울특별시 동작구  양녕로  170 (상도동),홈플러스 익스프레스 상도3점,구분없음,194941.030627361,443848.078951741
1,영업/정상,서울특별시 동작구 상도로 346-1 (상도동 상도엠코타운 센트럴파크),(주)지에스리테일 상도 엠코타운점,구분없음,195585.914045797,443690.595413251
1,영업/정상,서울특별시 동작구 여의대방로 30 에이동동 101호 (신대방동 현대상가),롯대슈펴 신대방점,그 밖의 대규모점포,192170.155815215,443599.41901313
2,휴업,서울특별시 동작구 여의대방로 22 (신대방동),신대방우성상가,그 밖의 대규모점포,192113.200600983,443344.373525343
2,휴업,,서울노량진종합시장,그 밖의 대규모점포,194571.152376388,445790.549860682
2,휴업,,서울노량진종합시장,그 밖의 대규모점포,194807.845295028,445901.413432497
2,휴업,서울특별시 동작구 동작대로 115 태평백화점 (사당동),태평백화점,백화점,198303.527071078,442742.422887932
3,폐업,서울특별시 동작구 상도로 147 (상도동),롯데쇼핑(주) 롯데슈퍼 상도3동점,복합쇼핑몰,194250.710026163,444556.425220128
3,폐업,서울특별시 동작구 동작대로29길 119 (사당동),(주)지에스리테일 GS수퍼 사당점,구분없음,197802.054854046,443049.47147487
3,폐업,서울특별시 동작구 동작대로 9 (사당동),롯데쇼핑(주)롯데슈퍼 사당점,그 밖의 대규모점포,198259.042471994,441696.145605791
3,폐업,서울특별시 동작구 동작대로 115 (사당동),(주) GS리테일 GS수퍼 사당태평점,구분없음,198303.527071078,442742.422887932
1,영업/정상,서울특별시 관악구 조원로16길 27 (신림동),신림중앙시장,시장,192096.349629652,442339.213626523
1,영업/정상,서울특별시 관악구 신림로23길 16 (신림동),일성트루엘상가,그 밖의 대규모점포,194203.82517200000,441229.92915700000
1,영업/정상,서울특별시 관악구 난곡로26길 4 (신림동),우림시장,그 밖의 대규모점포,192893.347466833,440903.81963928
1,영업/정상,서울특별시 관악구 청림3길 10 (봉천동),관악쇼핑,그 밖의 대규모점포,196338,442951
1,영업/정상,서울특별시 관악구 남부순환로248길 35 (봉천동),원당종합시장,그 밖의 대규모점포,196912.833572618,441358.893188526
1,영업/정상,서울특별시 관악구 양녕로 46 (봉천동),홈플러스 익스프레스 봉천점,구분없음,195274.343265834,442663.498606503
﻿1,영업/정상,서울특별시 관악구 은천로 51 (봉천동),(주)이마트에브리데이 봉천동점,대형마트,194770.417438694,442676.831360439
1,영업/정상,서울특별시 관악구 난곡로 220 (신림동),(주)천성세이브마트,그 밖의 대규모점포,192674.885947244,441352.743493574
1,영업/정상,서울특별시 관악구 과천대로 909 (남현동),홈플러스 서울남현점,대형마트,198449.00217100000,441337.85896100000
1,영업/정상,서울특별시 관악구 신림로 330 (신림동),타임스트림,복합쇼핑몰,193754.427350029,442407.201247108
1,영업/정상,서울특별시 관악구 쑥고개로 111 (봉천동),(주)지에스리테일 관악점,구분없음,195431.465419568,441896.302934956
1,영업/정상,서울특별시 관악구 봉천로 576 (봉천동),(주)지에스리테일 낙성대점,구분없음,196501.159765837,441640.881044209
1,영업/정상,,봉일시장,그 밖의 대규모점포,194486.270488664,442632.469540589
1,영업/정상,,봉일시장,그 밖의 대규모점포,194486.270488664,442632.469540589
1,영업/정상,서울특별시 관악구 양녕로 49 (봉천동),봉천현대시장,시장,195206.056916766,442716.301708689
1,영업/정상,서울특별시 관악구 관악로 212 (봉천동),관악프라자,쇼핑센터,195963.335274799,442381.536010445
1,영업/정상,서울특별시 관악구 관악로40길 47 (봉천동),관악현대상가,그 밖의 대규모점포,196257.833652996,443341.379446435
1,영업/정상,서울특별시 관악구 신림로29길 8 (신림동),신림현대종합상가,시장,193957.944323928,441437.774867372
1,영업/정상,서울특별시 서초구 매헌로 16 (양재동),하이브랜드,그 밖의 대규모점포,203204.755637424,440136.781183797
1,영업/정상,서울특별시 관악구 신림로 340 (신림동),르네상스쇼핑몰(주),복합쇼핑몰,193746.833837509,442510.775085572
1,영업/정상,서울특별시 관악구 남부순환로 1820 (봉천동),라붐아울렛,복합쇼핑몰,195703.043681259,442094.085759338
1,영업/정상,,관악종합시장,그 밖의 대규모점포,,
2,휴업,,르네상스쇼핑몰(주),쇼핑센터,193746.833837509,442510.775085572
2,휴업,,르네상스쇼핑몰(주),쇼핑센터,193746.833837509,442510.775085572
2,휴업,,관악종합시장,그 밖의 대규모점포,193580.366498464,442144.670802989
3,폐업,서울특별시 관악구 신림로 101 (신림동),홈플러스 익스프레스 신림점,구분없음,194457.492960109,440910.563872941
3,폐업,서울특별시 관악구 남현길 79 (남현동),롯데쇼핑(주)롯데슈퍼 남현2점,구분없음,197790.079787758,441231.59187991
1,영업/정상,서울특별시 서초구 방배중앙로 198 (방배동),롯데쇼핑(주)롯데슈퍼 방배점,전문점,198660.616347373,443855.573402136
1,영업/정상,서울특별시 서초구 신반포로 23 (반포동),엘루체,그 밖의 대규모점포,198791.788015494,444392.672548989
1,영업/정상,서울특별시 서초구 사임당로 151 (서초동),무지개쇼핑,그 밖의 대규모점포,202216.049985624,443352.024569293
1,영업/정상,서울특별시 방배로33길 29,롯데슈퍼 방배2점,대형마트,198984.364832071,443229.835878514
1,영업/정상,서울특별시 서초구 효령로 304 (서초동),국제전자도매센타,전문점,201501.672660443,442505.573142545
1,영업/정상,서울특별시 서초구 신반포로3길 8 (반포동),반포프라자,그 밖의 대규모점포,198776.113460442,444432.325191038
1,영업/정상,서울특별시 서초구 사임당로 130 (서초동),신동아종합상가,그 밖의 대규모점포,202250.14517858,443143.784571728
1,영업/정상,서울특별시 서초구 방배천로16길 18 (방배동),방배종합시장,그 밖의 대규모점포,198492.797210723,442199.268340209
1,영업/정상,서울특별시 서초구 신반포로15길 29 (반포동),신반포종합시장,그 밖의 대규모점포,199448.513021585,444800.550772527
1,영업/정상,서울특별시 서초구 나루터로 37 (잠원동),신사쇼핑,그 밖의 대규모점포,201230.693449214,445992.459343379
1,영업/정상,서울특별시 서초구 서초중앙로22길 25 (서초동),대림서초리시온,그 밖의 대규모점포,201295.700037578,443474.524864903
1,영업/정상,서울특별시 서초구 서초중앙로 188 (서초동),아크로비스타 아케이드,그 밖의 대규모점포,201107.634736928,443999.067092566
1,영업/정상,서울특별시 서초구 강남대로 465 (서초동),교보타워 지하아케이드,전문점,202058.674687128,444618.16731522
1,영업/정상,서울특별시 서초구 방배로33길 29 (방배동),이수시장,그 밖의 대규모점포,198984.364832071,443229.835878514
1,영업/정상,서울특별시 서초구 양재대로 159 (양재동),코스트코코리아,대형마트,203123.870437513,439984.847528537
1,영업/정상,서울특별시 서초구 신반포로3길 8 (반포동),반포프라자,그 밖의 대규모점포,198776.113460442,444432.325191038
1,영업/정상,서울특별시 서초구 효령로 391 (서초동 무지개아파트),무지개종합상가,그 밖의 대규모점포,202245.377899369,442987.986999742
1,영업/정상,서울특별시 서초구 신반포로 194 (반포동),터미널상가,그 밖의 대규모점포,200554.74395758,444811.364826199
1,영업/정상,서울특별시 서초구 매헌로 16 (양재동하이브랜드 지하1층),(주)이마트 양재점,대형마트,203204.755637424,440136.781183797
1,영업/정상,서울특별시 서초구 나루터로 32 (잠원동),대림상가,그 밖의 대규모점포,,
1,영업/정상,서울특별시 서초구 고무래로 90-7 (서초동),서초쇼핑,그 밖의 대규모점포,201472.668856726,444193.267014675
1,영업/정상,서울특별시 서초구 서초중앙로 220 (반포동),한양스토아,그 밖의 대규모점포,201160.045636579,444426.564326186
3,폐업,서울특별시 서초구 신반포로 326 (반포동),홈플러스(주) 익스프레스 서울논현역점,복합쇼핑몰,201658.76521908,445341.749545748
3,폐업,서울특별시 서초구 잠원로4길 54 (잠원동 매일종합상가),매일종합상가,그 밖의 대규모점포,201024.481364815,445492.334204608
3,폐업,서울특별시 서초구 서초대로 385 (서초동),진흥종합상가,그 밖의 대규모점포,201952.309841677,443904.461723691
3,폐업,서울특별시 서초구 서초대로 34 (방배동),홈플러스익스프레스 방배점,복합쇼핑몰,198709.207041029,442599.234175666
1,영업/정상,,삐에로쇼핑 강남논현점,구분없음,201994.292033914,445091.876704064
1,영업/정상,서울특별시 강남구 논현로28길 9 유진빌딩 (도곡동),홈플러스익스프레스 도곡2점,구분없음,203764.786572817,442286.229201457
1,영업/정상,서울특별시 강남구 압구정로29길 72-1 (압구정동),신사상가,그 밖의 대규모점포,202440.338882233,447782.51322707
﻿1,영업/정상,서울특별시 강남구 압구정로 407 (압구정동 갤러리아백화점),갤러리아백화점(동관),백화점,203604.761651873,447316.222786487
1,영업/정상,서울특별시 강남구 학동로101길 26 (청담동),청담삼익시장,그 밖의 대규모점포,205034.15838707,446675.932361885
1,영업/정상,서울특별시 강남구 남부순환로 2912 (대치동 개포우성아파트),그랑프리,그 밖의 대규모점포,204992.451561361,443183.576115254
1,영업/정상,서울특별시 강남구 남부순환로 2917 (대치동),청실종합상가,그 밖의 대규모점포,205154.638096613,443439.981644506
1,영업/정상,서울특별시 강남구 삼성로64길 41 (대치동),대치종합상가,그 밖의 대규모점포,205558.159926896,444312.078934352
1,영업/정상,서울특별시 강남구 개포로109길 5 (개포동 대청아파트),대치1단지상가,그 밖의 대규모점포,206581.787067095,443555.991242524
1,영업/정상,서울특별시 강남구 개포로109길 21 (개포동 대청아파트),대치2단지상가,그 밖의 대규모점포,206581.787067095,443555.991242524
1,영업/정상,서울특별시 강남구 테헤란로87길 22-0 (삼성동),도심공항몰(CALT MALL),쇼핑센터,205170.959716696,445264.936337181
1,영업/정상,서울특별시 강남구 강남대로 432 (역삼동 점프밀라노),점프밀라노,그 밖의 대규모점포,202296.99602809,444335.013666084
1,영업/정상,서울특별시 강남구 삼성로 633 1층 (삼성동 삼광빌딩),노브랜드 삼성점,구분없음,204447.069004407,446008.542809355
1,영업/정상,서울특별시 강남구 테헤란로 521 (삼성동),파르나스몰(PARNAS MALL),쇼핑센터,205314.159889285,445204.709309676
1,영업/정상,서울특별시 강남구 봉은사로 524 (삼성동),코엑스 호텔아케이드,쇼핑센터,205130.591678902,445590.096837802
1,영업/정상,서울특별시 강남구 영동대로 513 (삼성동),코엑스 몰,복합쇼핑몰,205340.631121567,445354.571117445
1,영업/정상,서울특별시 압구정로 201 (구현대아파트),금강상가,그 밖의 대규모점포,202485.226490575,447521.520319158
1,영업/정상,서울특별시 강남구 남부순환로 2921 (대치동),남서울종합시장,그 밖의 대규모점포,205209.747122636,443490.817333221
1,영업/정상,서울특별시 강남구 역삼로 310 (역삼동),(주)이마트 역삼점,대형마트,204213.643236507,444113.028210915
1,영업/정상,서울특별시 강남구 학동로43길 38 (논현동),논현웰스톤상가,그 밖의 대규모점포,203292.307005445,446247.511537864
1,영업/정상,서울특별시 강남구 남부순환로 2804 (도곡동 아카데미스위트),아카데미프라자,그 밖의 대규모점포,204538.144891563,442942.853505354
1,영업/정상,서울특별시 강남구 삼성로103길 12 (삼성동),삼성동 신도브래뉴 주상복합 상가,그 밖의 대규모점포,204652.111034177,445353.174360925
1,영업/정상,서울특별시 강남구 도산대로 442 (청담동),SSG Food Market 백화점,백화점,203789.588128352,446796.128299612
1,영업/정상,서울특별시 강남구 강남대로124길 22 3층 301호 (논현동),영동전통시장,그 밖의 대규모점포,202023.395227792,445302.915908145
1,영업/정상,서울특별시 강남구 학동로4길 15 (논현동),동화상가(주),그 밖의 대규모점포,202010.0103397,445368.131754546
1,영업/정상,서울특별시 강남구 학동로 176 (논현동),홈플러스익스프레스 학동역점,구분없음,202599.512133865,445700.273918744
1,영업/정상,서울특별시 강남구 도산대로85길 30 (청담동),신원아침도시마인상가,그 밖의 대규모점포,204391.42543100000,447439.75242100000
1,영업/정상,서울특별시 강남구 역삼로 230 (역삼동),롯데슈퍼 역삼2동점,구분없음,203641.076839094,443854.896864211
3,폐업,서울특별시 강남구 논현로63길 16 (역삼동),역삼서해더블루,그 밖의 대규모점포,203389.562748068,443422.779316247
1,영업/정상,서울특별시 강남구 역삼로8길 15 (역삼동),롯데슈퍼 역삼1동점,구분없음,202957.286742981,443437.682541522
1,영업/정상,서울특별시 강남구 언주로122길 25 (논현동 두산위브아파트),롯데슈퍼 논현점,구분없음,203322.585990371,445590.72903471
1,영업/정상,서울특별시 강남구 선릉로 660 (삼성동),밀구루 삼성점,구분없음,203675.905036013,445926.119732235
1,영업/정상,서울특별시 강남구 봉은사로103길 5 (삼성동),롯데슈퍼 코엑스점,구분없음,205359.898726792,445864.805913342
1,영업/정상,서울특별시 강남구 언주로 123 (도곡동 개포한신아파트),롯데슈퍼 도곡점,구분없음,204254.782968629,442744.847670936
1,영업/정상,서울특별시 강남구 강남대로128길 128-20 1층 101104106호 (논현동 영동프라자),(주)지에스리테일 GS슈퍼 강남 논현점,구분없음,202023.395227792,445302.915908145
1,영업/정상,서울특별시 강남구 삼성로 150 (대치동 한보미도맨션),한보종합상가,그 밖의 대규모점포,205886.286776047,443467.611815598
1,영업/정상,서울특별시 강남구 역삼로 310 (역삼동),한솔필리아,그 밖의 대규모점포,204213.643236507,444113.028210915
1,영업/정상,서울특별시 강남구 압구정로2길 46 (신사동),강남시장,복합쇼핑몰,201757.494098748,446282.45446652
1,영업/정상,서울특별시 강남구 봉은사로33길 33 (논현동),논현종합시장,그 밖의 대규모점포,203005.088001821,445311.309960952
1,영업/정상,서울특별시 강남구 언주로 726 (논현동 두산빌딩),두산아케이드,그 밖의 대규모점포,203050.783890109,446316.514036122
1,영업/정상,서울특별시 강남구 양재대로55길 6 (일원동 도시개발아파트),수서1-2단지상가,그 밖의 대규모점포,207748.487100942,443240.945026406
1,영업/정상,,진솔물산,그 밖의 대규모점포,202557.007830645,443648.622539856
1,영업/정상,서울특별시 강남구 압구정로 165 (압구정동 현대백화점본점),(주)현대백화점 본점,백화점,202358.505687227,447232.955697694
1,영업/정상,서울특별시 강남구 테헤란로 517 (삼성동 무역센터현대백화점),현대백화점 무역센터점,백화점,205210.358779172,445154.42225208
1,영업/정상,서울특별시 강남구 압구정로 343 (압구정동 갤러리아백화점),갤러리아백화점(서관),백화점,203470.848439305,447369.579851952
1,영업/정상,서울특별시 강남구 압구정로46길 5-2 (신사동),홈플러스 익스프레스 압구정점,구분없음,203191.25706078,447312.903662969
1,영업/정상,서울특별시 강남구 압구정로18길 25 (신사동 한국산업양행빌딩),(주)지에스리테일 신사점,구분없음,202167.012989943,446808.075588622
2,휴업,,금강상가,그 밖의 대규모점포,202485.226490575,447521.520319158
2,휴업,,(주)신세계마트 이마트 역삼점,대형마트,204213.643236507,444113.028210915
2,휴업,,(주)현대백화점 동호스토아,백화점,202485.226490575,447521.520319158
2,휴업,,남서울종합상가,그 밖의 대규모점포,,
2,휴업,,(주)금강개발산업,그 밖의 대규모점포,202485.226490575,447521.520319158
3,폐업,서울특별시 강남구 도산대로85길 30 (청담동),청담제일시장,그 밖의 대규모점포,204391.42543100000,447439.75242100000
﻿3,폐업,서울특별시 강남구 봉은사로72길 39 (삼성동),삼성종합시장,시장,204582.09981345,445311.806281605
3,폐업,서울특별시 강남구 역삼로52길 14 (역삼동),역삼시장,시장,204170.278135097,444036.656041328
3,폐업,서울특별시 강남구 역삼로52길 14 (역삼동),역삼시장,그 밖의 대규모점포,204170.278135097,444036.656041328
3,폐업,서울특별시 강남구 광평로51길 49 (수서동 주공아파트),수서종합상가,그 밖의 대규모점포,208789.626026494,443219.258555294
3,폐업,,서울상록회관,대형마트,203746.537598441,444628.07813453
3,폐업,서울특별시 강남구 역삼로 310 (역삼동),(주)신세계마트 이마트 역삼점,대형마트,204213.643236507,444113.028210915
3,폐업,서울특별시 강남구 도산대로 442 (청담동),SSG Food Market 백화점,백화점,203789.588128352,446796.128299612
3,폐업,서울특별시 강남구 논현로 468 (역삼동),롯데쇼핑(주)롯데슈퍼 역삼점,,,
3,폐업,서울특별시 강남구 도산대로35길 39 (신사동),롯데슈퍼 압구정점,구분없음,202612.708410687,446806.733541327
3,폐업,서울특별시 강남구 학동로4길 15 (논현동),영동시장,그 밖의 대규모점포,202010.0103397,445368.131754546
3,폐업,,미씨-860,그 밖의 대규모점포,206970.919291372,443574.411625824
3,폐업,,(주)재능스스로마트,그 밖의 대규모점포,204254.782968629,442744.847670936
3,폐업,서울특별시 강남구 학동로43길 38 지하2층 (논현동 논현웰스톤),(주)지에스리테일 논현점,구분없음,203292.307005445,446247.511537864
4,취소/말소/만료/정지/중지,,일원마트,그 밖의 대규모점포,207614.091005038,443297.031452896
1,영업/정상,서울특별시 강남구 테헤란로 231 센터필드 (역삼동),더 샵스 앳 센터필드 (THE SHOPS AT CENTERFIELD),그 밖의 대규모점포,203599.062771687,444556.062267296
1,영업/정상,서울특별시 송파구 올림픽로 435 (신천동 파크리오아파트),(주)지에스리테일 잠실파크리오점,구분없음,209995.612788762,446691.34604437
1,영업/정상,서울특별시 송파구 오금로46길 49 (가락동),(주)지에스리테일 송파가락점,구분없음,211693.932828168,443503.427857478
1,영업/정상,서울특별시 송파구 올림픽로 300-0 (신천동),롯데하이마트 월드타워점,전문점,209074.900840074,445657.80932984
1,영업/정상,서울특별시 송파구 올림픽로 203 (잠실동),(주)지에스리테일 잠실점,구분없음,208187.623477261,445589.718583334
1,영업/정상,서울특별시 송파구 올림픽로 300 (신천동),롯데월드몰,쇼핑센터,209074.900840074,445657.80932984
1,영업/정상,서울특별시 송파구 마천로45길 23 (마천동),마천시장,그 밖의 대규모점포,213247.196130934,444020.568495222
1,영업/정상,서울특별시 송파구 올림픽로4길 40 (잠실동),프리마 쇼핑센타,그 밖의 대규모점포,206397.34797252,444963.233863255
1,영업/정상,서울특별시 송파구 석촌호수로 133 (잠실동),홈플러스(주)익스프레스 잠실점,구분없음,208045.233042977,445054.410833743
1,영업/정상,서울특별시 송파구 가락로28길 7 (송파동),홈플러스(주) 익스프레스 송파점,구분없음,210264.355667851,444937.580211197
1,영업/정상,서울특별시 송파구 가락로 103 (석촌동),엄마손상가,그 밖의 대규모점포,209440.726523187,444369.495694674
1,영업/정상,서울특별시 송파구 충민로 10 (문정동),가든파이브 툴,쇼핑센터,210535.08961600000,442137.57867400000
1,영업/정상,서울특별시 송파구 충민로 66 (문정동),가든파이브 라이프,그 밖의 대규모점포,211053.11951800000,442026.98878300000
1,영업/정상,서울특별시 송파구 마천로 315 (마천동),송파쇼핑센타,그 밖의 대규모점포,213279.781081276,443674.682876425
1,영업/정상,서울특별시 송파구 올림픽로 203 (잠실동),잠실중앙상가,그 밖의 대규모점포,208187.623477261,445589.718583334
1,영업/정상,서울특별시 송파구 양재대로72길 5 (오금동),올림픽파크동부센트레빌 상가,그 밖의 대규모점포,211217.0019233,445334.151660974
1,영업/정상,서울특별시 송파구 가락로 183 (송파동),한화건설 송파지점,그 밖의 대규모점포,210057.912138022,444767.367639796
1,영업/정상,서울특별시 송파구 동남로 189 (가락동),쌍용프라자 상가,그 밖의 대규모점포,211259.909777857,443711.702922024
1,영업/정상,서울특별시 송파구 올림픽로35가길 16 (신천동),홈플러스(주)잠실점,대형마트,209039.148023482,446007.966801057
1,영업/정상,서울특별시 송파구 올림픽로 240 (잠실동),롯데하이마트잠실점,전문점,208589.363343145,445455.90405262
1,영업/정상,서울특별시 송파구 동남로 189 (가락동 쌍용아파트),(주)지에스리테일 송파점,구분없음,211259.909777857,443711.702922024
1,영업/정상,서울특별시 송파구 오금로31가길 20 (방이동 대림아파트),(주)지에스리테일 방이점,구분없음,210908.984532034,445042.920252223
1,영업/정상,서울특별시 송파구 양재대로 1222 (방이동),올림픽프라자상가,그 밖의 대규모점포,211619.368009793,445963.384875409
1,영업/정상,서울특별시 송파구 올림픽로 212 (잠실동),갤러리아팰리스 아케이드,그 밖의 대규모점포,208233.926974585,445435.257647797
1,영업/정상,서울특별시 오금로 512,홈플러스(주)익스프레스 거여점,구분없음,212800.699970729,443397.261935451
1,영업/정상,서울특별시 송파구 백제고분로34길 3 (석촌동),롯데쇼핑(주)롯데슈퍼석촌점,구분없음,208675.812751826,444446.053485778
1,영업/정상,서울특별시 송파구 양재대로72길 5 (오금동),농협하나로마트방이역점,구분없음,211217.0019233,445334.151660974
1,영업/정상,서울특별시 송파구 중대로9길 35 (가락동),(주)이마트에브리데이 가락동점,구분없음,210391.461980814,443796.02703891
1,영업/정상,서울특별시 송파구  올림픽로51길  52 (풍납동),홈플러스(주)익스프레스 풍납점,구분없음,210378.825036871,447916.043934269
1,영업/정상,서울특별시 송파구 백제고분로 207 (삼전동 제이 플레이스),홈플러스 익스프레스 삼전역점,구분없음,207875.596264658,444672.586038194
1,영업/정상,서울특별시 송파구 송파대로 345 (가락동 헬리오시티),이마트에브리데이 송파점,구분없음,209394.231297346,443951.236927017
2,휴업,서울특별시 송파구 송파대로 562 (신천동),주-한화유통,그 밖의 대규모점포,208730.633457015,445905.025545443
3,폐업,서울특별시 송파구 석촌호수로 156 (삼전동),(주)지에스리테일 삼전점,구분없음,208280.534908805,444954.935453176
3,폐업,서울특별시 송파구 오금로32길 32 (송파동),(주)지에스리테일 송파2점,구분없음,210432.726398095,444603.003663184
3,폐업,서울특별시 송파구 법원로 55 상가D동 401외 5호 (문정동 송파아이파크),노브랜드 문정점,구분없음,210697,441990
3,폐업,서울특별시 송파구 올림픽로 300 (신천동),롯데면세점 월드타워점,전문점,209074.900840074,445657.80932984
﻿3,폐업,,석우종합시장,그 밖의 대규모점포,,
3,폐업,서울특별시 송파구 올림픽로35길 124 (신천동),장미종합상가,그 밖의 대규모점포,208707.089897534,446299.352775446
3,폐업,서울특별시 송파구 새말로 176 (문정동),주-화신유통,,211632.462045386,442617.382308292
3,폐업,서울특별시 송파구 오금로 507 (거여동),롯데쇼핑(주)롯데슈퍼거여점,구분없음,212769.337053978,443460.333645388
3,폐업,서울특별시 송파구 새말로 136 (문정동),(주)지에스리테일 문정점,구분없음,211350.099419457,442328.447083979
3,폐업,서울특별시 송파구 백제고분로 387 (송파동),홈플러스익스프레스 송파2점,구분없음,209522.43324123,444926.099764329
3,폐업,서울특별시 송파구 중대로 135 (가락동),가락동포스코주상복합상가,그 밖의 대규모점포,210758.119119654,443662.956402309
3,폐업,서울특별시 송파구 올림픽로 212 (잠실동),갤러리아 잠실점,그 밖의 대규모점포,208233.926974585,445435.257647797
3,폐업,서울특별시 송파구 백제고분로 207 (삼전동),홈플러스(주)익스프레스 삼전점,구분없음,207869.041788408,444656.547305861
3,폐업,서울특별시 송파구 올림픽로 203 (잠실동),(유)잠실중앙상가,그 밖의 대규모점포,208187.623477261,445589.718583334
1,영업/정상,서울특별시 송파구 동남로20길 24 (가락동),롯데프레시송파가락가맹점,구분없음,211822.100655974,443697.739713172
1,영업/정상,서울특별시 강동구 고덕로 353 고덕그라시움아파트(상가1동) 지하1층 108-119128호 (고덕동),지에스 더프레시(GS THE FRESH) 고덕그라시움점,구분없음,214293.085340515,450636.626425939
1,영업/정상,서울특별시 강동구 올림픽로 572 상가동 1층 101102호 (성내동 코오롱 2차아파트),이마트에브리데이 성내점,구분없음,210694.989265395,447815.986328694
1,영업/정상,서울특별시 강동구 양재대로89길 16 (성내동),파크프라자 상가,그 밖의 대규모점포,211838.35431041,447195.676766748
1,영업/정상,서울특별시 강동구 천호대로 1017 (천호동),(주)이마트천호점,대형마트,211025.924972294,448495.189151526
1,영업/정상,,천호신시장,시장,211252.735515916,448823.39875114
1,영업/정상,서울특별시 강동구 천호대로162길 34 (성내동),이안강동주상복합상가,그 밖의 대규모점포,211238.661063855,448150.595848877
1,영업/정상,서울특별시 강동구 진황도로 99 (길동),강동한신휴플러스,그 밖의 대규모점포,212081.019857419,448209.124823551
1,영업/정상,서울특별시 강동구 양재대로 1571 (천호동),홈플러스 강동점,대형마트,212501.369116329,449282.31038379
1,영업/정상,서울특별시 강동구 양재대로124길 32 (길동),동서울오네뜨상가,그 밖의 대규모점포,212624.891449347,448937.811380947
1,영업/정상,서울특별시 강동구 양재대로 1630 (명일동),(주)지에스리테일 명일점,구분없음,212676.162193508,449910.881572138
1,영업/정상,서울특별시 강동구 천호대로 1005 (천호동 현대백화점),현대백화점 천호점,백화점,210931.643485,448522.079827
1,영업/정상,서울특별시 강동구 고덕로 276 (명일동),(주)이마트명일점,대형마트,213700.877714971,450278.100930843
1,영업/정상,서울특별시 강동구 고덕로 99 (암사동),(주)이마트에브리데이 암사동점,구분없음,211970.119823136,450308.559655461
1,영업/정상,서울특별시 강동구  고덕로62길  55 (명일동),주양쇼핑,그 밖의 대규모점포,213493.90717524,450038.847319845
1,영업/정상,서울특별시 강동구 고덕로 133 (암사동),(주)지에스리테일 암사캐슬점,구분없음,212334.9584644,450346.790651613
1,영업/정상,서울특별시 강동구 고덕로24길 50 (암사동),홈플러스(주) 익스프레스 암사점,대형마트,211868.244314608,450020.355211693
1,영업/정상,서울특별시 강동구 풍성로 138 (성내동),홈플러스(주) 익스프레스 성내점,구분없음,211185.497701374,447670.852055872
1,영업/정상,서울특별시 강동구 고덕로 210 (명일동),(주)이마트에브리데이 명일동점,구분없음,213048.692179757,450124.105734971
1,영업/정상,서울특별시 강동구 양재대로 1486 (길동),홈플러스(주)익스프레스 길동점,구분없음,212349.37381605,448466.105629578
2,휴업,,동아코아,쇼핑센터,211055.486155787,448786.697371515
2,휴업,,천호신시장,그 밖의 대규모점포,211252.735515916,448823.39875114
2,휴업,,신세계이마트천호점,그 밖의 대규모점포,,
2,휴업,,천호신시장,그 밖의 대규모점포,211252.735515916,448823.39875114
2,휴업,,동서울시장,그 밖의 대규모점포,211265.331889504,448886.316858581
1,영업/정상,서울특별시 강동구 올림픽로 528 (성내동),(주)농협유통 하나로마트 성내점,구분없음,210566.875626134,447402.629676369
2,휴업,,동아코아,쇼핑센터,211055.486155787,448786.697371515
2,휴업,,동아코아,쇼핑센터,211055.486155787,448786.697371515
2,휴업,,동아코아,쇼핑센터,211055.486155787,448786.697371515
2,휴업,,동아코아,쇼핑센터,211055.486155787,448786.697371515
2,휴업,,동아코아,쇼핑센터,211055.486155787,448786.697371515
2,휴업,,천호시장,그 밖의 대규모점포,211196.195653708,448722.851784118
2,휴업,,이천일아울렛 천호점,그 밖의 대규모점포,211055.486155787,448786.697371515
2,휴업,,현대프라자,그 밖의 대규모점포,211336.172451748,448556.794492412
2,휴업,,킴스클럽,대형마트,211750.89622364,448202.632546787
2,휴업,,이마트천호점,대형마트,211025.924972294,448495.189151526
3,폐업,서울특별시 강동구 양재대로 1330 (둔촌동),(주)지에스리테일 둔촌점,구분없음,211979.520569314,446932.653730601
3,폐업,서울특별시 강동구 고덕로62길 55 지하1층 (명일동),(주)지에스리테일 주양점,구분없음,213493.90717524,450038.847319845
3,폐업,서울특별시 강동구 구천면로 205 (천호동),천호시장,그 밖의 대규모점포,211196.195653708,448722.851784118
3,폐업,서울특별시 강동구 진황도로 18 (천호동),현대프라자,그 밖의 대규모점포,211336.172451748,448556.794492412
﻿3,폐업,서울특별시 강동구 양재대로 1330 (둔촌동),둔촌종합상가,그 밖의 대규모점포,211979.520569314,446932.653730601
3,폐업,서울특별시 강동구 풍성로63길 84 (둔촌동),롯데쇼핑(주)롯데슈퍼둔촌점,대형마트,212334.69890736,447728.865137096
3,폐업,,양지종합시장,시장,212082.014198045,450348.793644384
3,폐업,서울특별시 강동구 올림픽로80길 58 (천호동),동서울시장,시장,211265.331889504,448886.316858581
3,폐업,서울특별시 강동구 구천면로 317 (암사동),(주)지에스리테일 암사점,구분없음,211856.46923171,449540.660436957
3,폐업,,롯데슈퍼암사가맹점,대형마트,211466.885452018,450264.276387605
3,폐업,서울특별시 강동구 양재대로 1330 지하1층 (둔촌동 둔촌종합상가),(주)농협유통 하나로마트 둔촌점,구분없음,211979.520569314,446932.653730601
3,폐업,서울특별시 강동구 천호대로 1078 (성내동),롯데쇼핑㈜롯데슈퍼강동점,구분없음,211532.353686299,448182.588454494
4,취소/말소/만료/정지/중지,,삼성테드크(주)홈플러스강동점,대형마트,212501.369116329,449282.31038379
1,영업/정상,서울특별시 강동구 진황도로 12 (천호동),천호코오롱상가,그 밖의 대규모점포,211279.030241561,448548.819716671
1,영업/정상,,신세계 이마트 명일점,대형마트,213700.877714971,450278.100930843
1,영업/정상,,양지종합시장,시장,212082.014198045,450348.793644384
1,영업/정상,서울특별시 용산구 서빙고로 17 용산해링턴스퀘어 C동 1층 111~115호 (한강로3가),GS THE FRESH 용산해링턴점,구분없음,197071.403205622,447073.62284187
1,영업/정상,서울특별시 용산구 백범로 341 (원효로1가),롯데쇼핑(주)롯데슈퍼원효로점,구분없음,197101.127488725,448437.06789045
1,영업/정상,,롯데백화점 에비뉴엘 월드타워점,백화점,209074.900840074,445657.80932984
1,영업/정상,서울특별시 송파구 올림픽로 300 롯데월드타워앤드롯데월드몰 (신천동),롯데쇼핑(주) 롯데마트 월드타워점,대형마트,209074.900840074,445657.80932984
1,영업/정상,서울특별시 송파구 가락로 183 1층 67호 (송파동),롯데쇼핑(주)롯데슈퍼송파점,구분없음,210057.912138022,444767.367639796
1,영업/정상,서울특별시 송파구 강동대로9길 20 (풍납동),롯데쇼핑(주)롯데슈퍼풍납점,구분없음,210274.185529862,447307.649759292
1,영업/정상,서울특별시 송파구 올림픽로32길 20 (방이동),롯데쇼핑(주)롯데슈퍼방이점,구분없음,209576.621957045,445779.100983519
1,영업/정상,서울특별시 송파구 올림픽로 111 (잠실동),롯데쇼핑(주)롯데슈퍼신천점,구분없음,207270.219021574,445550.277249649
1,영업/정상,서울특별시 송파구 석촌호수로 61 (잠실동),롯데쇼핑(주)롯데슈퍼잠실3동점,구분없음,207553.918225133,445383.338011122
1,영업/정상,서울특별시 송파구 올림픽로 269 (신천동),롯데캐슬플라자,쇼핑센터,208836.192051204,445807.727388799
1,영업/정상,서울특별시 송파구 중대로 80 (문정동),롯데쇼핑(주)롯데마트 송파점,대형마트,210343.699256005,443288.284974717
1,영업/정상,서울특별시 송파구 올림픽로 240 (잠실동),롯데마트(주) 롯데마트 제타플렉스,복합쇼핑몰,208589.363343145,445455.90405262
1,영업/정상,서울특별시 송파구 올림픽로 240 (잠실동),롯데백화점 잠실점,백화점,208589.363343145,445455.90405262
1,영업/정상,서울특별시 한강대로77길 12,롯데프레시 갈월점,구분없음,197443.881826007,448884.957554763
3,폐업,서울특별시 용산구 이촌로 352 (용산동6가),롯데쇼핑(주)롯데슈퍼 신동아점,구분없음,198622.89264988,446114.155238838
3,폐업,서울특별시 송파구 송파대로 111-0 (문정동),롯데프리미엄푸드마켓 문정점,구분없음,210966,442050
1,영업/정상,,롯데쇼핑(주) 롯데마트 서초점,대형마트,200438.992861987,443124.594422616
1,영업/정상,서울특별시 강서구 강서로 267 (내발산동),롯데쇼핑(주)롯데슈퍼 우장산점,그 밖의 대규모점포,185431.066605778,449714.813765198
1,영업/정상,서울특별시 강서구 방화대로34길 83 (방화동),롯데쇼핑(주)롯데슈퍼 방화점,그 밖의 대규모점포,184102.782470646,452097.370050563
1,영업/정상,서울특별시 강서구 강서로 43 (화곡동),롯데쇼핑(주)롯데슈퍼화곡점,그 밖의 대규모점포,186366.013413728,447719.836723478
1,영업/정상,서울특별시 양천로6길 15,롯데쇼핑(주)롯데슈퍼개화산점,그 밖의 대규모점포,182944.731406147,452207.427296372
1,영업/정상,서울특별시 강서구 강서로56길 17 (등촌동),(주) 이랜드리테일 강서점,백화점,185824.428508883,450866.252126246
1,영업/정상,서울특별시 강서구 하늘길 38 (방화동 롯데몰 김포공항),롯데몰 김포공항,쇼핑센터,182524.823835629,451438.25089679
1,영업/정상,서울특별시 용산구 청파로 112 나진상가 (한강로3가),용산라이프시티피에프브이 주식회사,전문점,196727.535753619,447868.128308607
1,영업/정상,서울특별시 강남구 도곡로 401 (대치동),롯데백화점(강남점),백화점,204669.543366778,443873.621189048
1,영업/정상,서울특별시 강동구 구천면로 189 (천호동),이천일아울렛 천호점,그 밖의 대규모점포,211055.486155787,448786.697371515
1,영업/정상,서울특별시 중구 남대문시장10길 2 (회현동1가메사빌딩),신세계백화점메사점,쇼핑센터,198129.435542814,450900.239718295
1,영업/정상,서울특별시 중구 장충단로 275 (을지로6가),두타몰,그 밖의 대규모점포,200703.625559248,451836.458256618
1,영업/정상,서울특별시 중구 장충단로 282-10 (신당동),남평화상가(주),그 밖의 대규모점포,200894.478544376,451877.080833985
1,영업/정상,서울특별시 중구 소공로 63 (충무로1가신세계백화점건물),신세계백화점,백화점,198263.90839194,450960.762964932
1,영업/정상,서울특별시 동대문구 이문로 88 (이문동),롯데쇼핑(주) 롯데마켓 999 이문점,복합쇼핑몰,205170.935816792,454707.524142172
1,영업/정상,서울특별시 동대문구 한천로46길 42 (장안동),롯데쇼핑(주) 롯데슈퍼 장안점,구분없음,206176.178625746,453248.09724644
1,영업/정상,서울특별시 동대문구 사가정로 148 (전농동 SK아파트),롯데쇼핑(주) 롯데슈퍼 전농점,구분없음,205271.704936121,452706.897879436
1,영업/정상,서울특별시 서초구 잠원로 51 (잠원동),뉴코아아울렛,전문점,200576.608647619,445241.8984183
1,영업/정상,서울특별시 서초구 잠원로 37-6 (잠원동 뉴코아백화점빌딩),뉴코아백화점,백화점,200367.985010323,445207.663497148
1,영업/정상,서울특별시 구로구 중앙로1길 36 (고척동),이천일 아울렛 구로점,그 밖의 대규모점포,187785.840457798,443997.135869884
1,영업/정상,서울특별시 서초구 잠원로 69 (잠원동),킴스클럽,대형마트,200576.608647619,445335.667245506
1,영업/정상,서울특별시 동대문구 왕산로 214 (전농동),롯데쇼핑(주)롯데마트 청량리점,대형마트,204081.282117393,453187.395154017
﻿1,영업/정상,서울특별시 동대문구 왕산로 214 (전농동),롯데백화점 청량리역사점,백화점,204081.282117393,453187.395154017
1,영업/정상,서울특별시 영등포구 선유로 138 (양평동3가),롯데쇼핑(주) 롯데마트 양평점,대형마트,190352.321686588,447095.641206789
1,영업/정상,서울특별시 금천구 시흥대로 291(독산동 금천롯데캐슬골드파크3차),롯데쇼핑(주) 금천 독산점,쇼핑센터,,
1,영업/정상,서울특별시 중구 다산로 56 제지2층 제비203호 (신당동 남산정은스카이아파트),롯데쇼핑(주)롯데슈퍼신당점,그 밖의 대규모점포,200611.681337882,449633.135193962
1,영업/정상,서울특별시 중구 명동8나길 47 (충무로1가),롯데쇼핑(주)롯데슈퍼명동점,그 밖의 대규모점포,198364.631775078,450975.950410804
1,영업/정상,서울특별시 마포구 마포대로 109 (공덕동 롯데캐슬프레지던트),롯데프리미엄푸드마켓 공덕점,구분없음,195564.375757848,449186.933273231
1,영업/정상,서울특별시 마포구 큰우물로 3 (대흥동),롯데슈퍼 대흥점,구분없음,194648.759340948,449239.314703653
1,영업/정상,서울특별시 중구 청파로 426 (봉래동2가),롯데쇼핑(주)롯데마트서울역점,대형마트,197243.215346366,450655.104239931
1,영업/정상,서울특별시 금천구 두산로 71 (독산동),롯데쇼핑(주) VIC 마켓 금천점,대형마트,190704.904312713,440940.384414334
1,영업/정상,서울특별시 영등포구 영중로 125 (영등포동8가),롯데쇼핑(주) VIC마켓 영등포점,대형마트,191503.386111551,447289.548355449
1,영업/정상,서울특별시  봉천로 209,롯데쇼핑(주) 관악점,백화점,193301.885808714,443151.561302292
1,영업/정상,서울특별시 영등포구 영중로 9 (영등포동4가 신세계백화점),(주)신세계 타임스퀘어점,백화점,191581.500265536,446108.807192753
1,영업/정상,서울특별시 중구 남대문로 81 (소공동),롯데백화점 본점,백화점,198259.65357739,451392.198218657
1,영업/정상,서울특별시 중구 남대문로 67 (남대문로2가),롯데쇼핑본점영플라자,백화점,198315.532747026,451248.141599825
1,영업/정상,서울특별시 광진구 광나루로56길 85 (구의동),롯데쇼핑(주)롯데마트 강변점,복합쇼핑몰,208394.416382167,448165.279999905
1,영업/정상,서울특별시 성북구 오패산로4길 17 (하월곡동),롯데마켓999 하월곡점,구분없음,201621.331749529,456272.261670237
1,영업/정상,서울특별시 성북구 월계로40길 7 (장위동),롯데마이슈퍼 장위점,구분없음,204208.631200867,457844.348010616
1,영업/정상,서울특별시 성북구 정릉로 307 (정릉동),롯데마이슈퍼 정릉점,구분없음,201548.495615664,455659.81785175
1,영업/정상,서울특별시 은평구 진흥로 103 (역촌동),롯데쇼핑(주) 롯데슈퍼 역촌점,그 밖의 대규모점포,193083.765685506,455978.010581693
1,영업/정상,서울특별시 광진구 능동로 92 (자양동),롯데백화점 건대스타시티점,백화점,206217.434726027,448506.218743834